{"type": "FeatureCollection", "features": [{"type": "Feature", "properties": {"name": "V\u00e4nern"}, "geometry": {"type": "Polygon", "coordinates": [[[14.098132, 59.042493], [14.071051, 59.023065], [14.040437, 59.009819], [14.010412, 59.005109], [13.989512, 59.004814], [13.978326, 59.003343], [13.973616, 58.998338], [13.972733, 58.987741], [13.977149, 58.977438], [13.987746, 58.967136], [14.001287, 58.959482], [14.014239, 58.956539], [14.014239, 58.950357], [14.004819, 58.937994], [13.993633, 58.899138], [13.986274, 58.881476], [13.973911, 58.86352], [13.965668, 58.856455], [13.95566, 58.853511], [13.953894, 58.850568], [13.964785, 58.834672], [13.965963, 58.82643], [13.958604, 58.821425], [13.936232, 58.816127], [13.931522, 58.809651], [13.928579, 58.808768], [13.912094, 58.817599], [13.904441, 58.819954], [13.879714, 58.813183], [13.868528, 58.799054], [13.871766, 58.783453], [13.890017, 58.771678], [13.849983, 58.739592], [13.711927, 58.689845], [13.702507, 58.682191], [13.695737, 58.674832], [13.686906, 58.669828], [13.67101, 58.669239], [13.653054, 58.67336], [13.648638, 58.679542], [13.647755, 58.688373], [13.640396, 58.699559], [13.624206, 58.69897], [13.547377, 58.669239], [13.530304, 58.65717], [13.522356, 58.65511], [13.507049, 58.655698], [13.488504, 58.663352], [13.475552, 58.665118], [13.462306, 58.658642], [13.439345, 58.644218], [13.363105, 58.628323], [13.325427, 58.60389], [13.279506, 58.536187], [13.245948, 58.510871], [13.213568, 58.503512], [13.172652, 58.502923], [13.137622, 58.512343], [13.122904, 58.535598], [13.128203, 58.542368], [13.160288, 58.56945], [13.166764, 58.579458], [13.176184, 58.602419], [13.184426, 58.613899], [13.17118, 58.614193], [13.136445, 58.620964], [13.123787, 58.620375], [13.006041, 58.600358], [13.001332, 58.602713], [12.996622, 58.606834], [12.990146, 58.609483], [12.979549, 58.607128], [12.983964, 58.605951], [12.979254, 58.596826], [12.965714, 58.579753], [12.946874, 58.569155], [12.924797, 58.567095], [12.900659, 58.571216], [12.875932, 58.579753], [12.894772, 58.57151], [12.923031, 58.552377], [12.938632, 58.546489], [12.927152, 58.540896], [12.920676, 58.539425], [12.911256, 58.538836], [12.917732, 58.529122], [12.921559, 58.527061], [12.931273, 58.524706], [12.915083, 58.515876], [12.892417, 58.499097], [12.875932, 58.491149], [12.824124, 58.479963], [12.807346, 58.473781], [12.796749, 58.472015], [12.778498, 58.477019], [12.770256, 58.473781], [12.762014, 58.46289], [12.757009, 58.45818], [12.670466, 58.442579], [12.679003, 58.428155], [12.684301, 58.42109], [12.691661, 58.414909], [12.651038, 58.389005], [12.601879, 58.366044], [12.552721, 58.356919], [12.512687, 58.373698], [12.531526, 58.384589], [12.569205, 58.400485], [12.584806, 58.411671], [12.619247, 58.464362], [12.63632, 58.477608], [12.603646, 58.468777], [12.590399, 58.462301], [12.578036, 58.452882], [12.541829, 58.414909], [12.537414, 58.408433], [12.533587, 58.406372], [12.528877, 58.401662], [12.522401, 58.396952], [12.478247, 58.389005], [12.465, 58.388121], [12.40495, 58.391065], [12.383167, 58.388121], [12.343428, 58.376641], [12.32606, 58.376053], [12.310753, 58.384589], [12.303689, 58.399013], [12.307221, 58.413437], [12.317524, 58.424623], [12.331653, 58.429038], [12.376102, 58.469955], [12.395236, 58.477903], [12.414958, 58.482024], [12.45823, 58.483495], [12.465589, 58.495564], [12.487666, 58.513521], [12.513865, 58.530888], [12.533881, 58.538836], [12.530643, 58.542663], [12.529172, 58.546195], [12.526522, 58.549139], [12.520341, 58.552082], [12.530055, 58.560619], [12.560668, 58.579753], [12.598347, 58.617431], [12.621308, 58.630972], [12.631022, 58.639508], [12.629255, 58.648045], [12.617481, 58.651283], [12.563907, 58.648045], [12.540357, 58.653344], [12.518574, 58.666884], [12.501796, 58.684252], [12.492965, 58.702797], [12.491493, 58.730173], [12.498263, 58.751367], [12.520341, 58.792283], [12.500618, 58.790517], [12.472065, 58.774033], [12.45823, 58.771678], [12.450282, 58.774033], [12.4441, 58.778743], [12.439979, 58.785807], [12.438213, 58.795816], [12.434681, 58.796699], [12.42585, 58.800526], [12.416136, 58.806119], [12.410248, 58.812595], [12.436447, 58.828196], [12.451459, 58.830845], [12.464411, 58.804352], [12.479718, 58.801114], [12.497969, 58.803175], [12.512687, 58.806413], [12.493848, 58.812595], [12.483545, 58.822897], [12.479424, 58.837027], [12.478541, 58.853511], [12.479718, 58.863225], [12.485017, 58.880004], [12.486194, 58.888246], [12.483839, 58.892367], [12.47913, 58.897666], [12.476186, 58.905025], [12.478541, 58.915622], [12.453814, 58.921804], [12.434681, 58.939465], [12.43056, 58.955361], [12.451459, 58.956539], [12.504445, 58.920332], [12.524167, 58.901787], [12.533881, 58.895311], [12.50886, 58.850568], [12.510921, 58.8332], [12.540357, 58.82643], [12.566261, 58.815833], [12.581274, 58.815538], [12.59246, 58.842031], [12.603646, 58.84939], [12.629255, 58.861165], [12.623368, 58.871173], [12.624251, 58.878238], [12.627489, 58.883831], [12.629255, 58.888246], [12.632788, 58.92563], [12.642796, 58.940349], [12.644268, 58.951829], [12.651333, 58.961543], [12.677237, 58.970962], [12.667228, 58.987741], [12.681063, 59.000693], [12.701375, 59.014528], [12.711972, 59.032485], [12.708145, 59.039844], [12.699903, 59.048086], [12.694604, 59.057211], [12.697842, 59.066631], [12.707556, 59.070458], [12.71727, 59.065748], [12.725807, 59.056328], [12.731694, 59.046025], [12.772905, 59.077228], [12.783502, 59.079877], [12.80764, 59.08076], [12.811761, 59.084881], [12.823536, 59.092829], [12.836193, 59.095184], [12.841786, 59.083704], [12.846496, 59.078994], [12.857388, 59.080466], [12.868868, 59.086353], [12.875932, 59.093712], [12.885646, 59.083704], [12.890062, 59.072518], [12.887413, 59.061627], [12.875932, 59.052796], [12.890651, 59.049852], [12.935394, 59.052207], [12.944814, 59.049558], [12.948052, 59.039549], [12.955705, 59.039844], [12.96483, 59.044259], [12.971895, 59.046025], [12.982492, 59.044848], [12.98838, 59.045437], [12.993678, 59.04367], [13.003098, 59.035428], [13.019877, 59.026892], [13.061971, 59.018944], [13.074923, 59.01129], [13.076983, 58.997161], [13.067858, 58.985092], [13.054023, 58.975672], [13.040482, 58.970962], [13.05314, 58.96743], [13.073156, 58.958305], [13.085814, 58.956539], [13.090524, 58.952418], [13.105831, 58.92563], [13.124965, 58.915328], [13.169119, 58.910029], [13.184426, 58.902081], [13.186781, 58.896783], [13.197967, 58.881476], [13.245065, 58.904142], [13.259489, 58.915622], [13.251541, 58.92828], [13.244476, 58.942998], [13.234762, 58.95595], [13.219161, 58.963309], [13.225343, 58.980088], [13.225931, 58.997455], [13.221516, 59.013351], [13.211802, 59.025714], [13.215629, 59.035723], [13.214451, 59.046614], [13.210036, 59.057211], [13.204737, 59.066631], [13.201794, 59.068103], [13.188842, 59.078405], [13.187664, 59.08076], [13.184132, 59.083115], [13.184132, 59.089002], [13.185015, 59.095773], [13.184426, 59.101366], [13.159699, 59.139633], [13.142038, 59.157884], [13.122904, 59.168775], [13.13615, 59.181433], [13.133501, 59.193207], [13.109069, 59.216757], [13.112601, 59.222938], [13.114073, 59.227354], [13.112601, 59.231475], [13.109069, 59.237951], [13.110246, 59.251197], [13.100238, 59.257673], [13.086403, 59.262972], [13.074923, 59.271214], [13.071979, 59.282988], [13.08287, 59.281811], [13.096706, 59.275335], [13.102593, 59.271214], [13.126731, 59.278279], [13.134973, 59.294763], [13.130557, 59.315368], [13.115545, 59.333913], [13.129969, 59.341273], [13.155578, 59.361878], [13.170591, 59.36806], [13.177361, 59.328615], [13.197378, 59.310659], [13.229758, 59.306243], [13.27303, 59.306832], [13.264787, 59.315074], [13.238589, 59.331264], [13.232702, 59.337151], [13.238, 59.347749], [13.251541, 59.357168], [13.267142, 59.364233], [13.280389, 59.36806], [13.3007, 59.369237], [13.359278, 59.361289], [13.363399, 59.36335], [13.376646, 59.372769], [13.383122, 59.37483], [13.393425, 59.373358], [13.417857, 59.361289], [13.450826, 59.356874], [13.483206, 59.360995], [13.595358, 59.394258], [13.628327, 59.39779], [13.655114, 59.40721], [13.67101, 59.408388], [13.661885, 59.393669], [13.656586, 59.388665], [13.669538, 59.377479], [13.682785, 59.376007], [13.711927, 59.381306], [13.719286, 59.383367], [13.723407, 59.388371], [13.726056, 59.393375], [13.729294, 59.395436], [13.766384, 59.395436], [13.766384, 59.388665], [13.76344, 59.37483], [13.754609, 59.367177], [13.72635, 59.35393], [13.734004, 59.346277], [13.736064, 59.341567], [13.732532, 59.333913], [13.743424, 59.325377], [13.763735, 59.323611], [13.808184, 59.326554], [13.79376, 59.338918], [13.784635, 59.351281], [13.786989, 59.360112], [13.808184, 59.361289], [13.815543, 59.350692], [13.822608, 59.343333], [13.831733, 59.340095], [13.842919, 59.342156], [13.851161, 59.345394], [13.859403, 59.345982], [13.87, 59.340095], [13.856459, 59.328615], [13.858226, 59.322728], [13.867351, 59.320667], [13.876182, 59.319784], [13.887956, 59.322139], [13.901497, 59.32626], [13.913272, 59.325083], [13.917981, 59.309776], [13.922103, 59.305949], [13.931522, 59.306243], [13.940353, 59.311542], [13.944769, 59.323022], [13.942414, 59.331559], [13.939176, 59.339212], [13.940648, 59.346865], [13.952128, 59.35393], [13.975088, 59.353341], [13.985685, 59.336563], [13.994811, 59.316252], [14.01365, 59.306832], [14.026013, 59.310953], [14.032489, 59.320373], [14.035433, 59.329792], [14.037493, 59.333913], [14.050445, 59.33303], [14.061337, 59.329792], [14.070168, 59.323022], [14.075761, 59.313014], [14.065164, 59.313602], [14.055744, 59.311836], [14.047502, 59.306832], [14.040437, 59.299178], [14.048679, 59.285343], [14.05545, 59.267387], [14.060454, 59.249137], [14.061926, 59.234124], [14.054566, 59.212047], [14.021598, 59.183788], [14.00894, 59.154057], [13.996871, 59.148464], [13.972733, 59.142282], [13.962136, 59.135512], [13.953011, 59.127564], [13.932111, 59.099894], [13.92799, 59.095478], [13.927401, 59.090769], [13.931522, 59.08076], [13.939764, 59.071635], [13.948595, 59.067514], [13.955954, 59.062804], [13.958898, 59.052796], [14.001581, 59.065453], [14.023658, 59.067808], [14.048385, 59.066631], [14.04603, 59.071046], [14.042498, 59.082526], [14.040437, 59.086942], [14.059865, 59.092535], [14.058393, 59.101366], [14.051328, 59.111374], [14.054566, 59.120499], [14.06899, 59.121677], [14.081648, 59.112552], [14.091362, 59.098716], [14.096661, 59.086942], [14.091951, 59.081643], [14.086652, 59.071929], [14.082531, 59.066631], [14.089301, 59.062804], [14.096955, 59.061627], [14.10608, 59.063098], [14.116677, 59.066631], [14.098132, 59.042493]], [[13.204737, 58.655698], [13.204737, 58.671594], [13.199144, 58.680425], [13.170591, 58.696615], [13.157639, 58.690433], [13.144098, 58.690433], [13.115545, 58.696615], [13.101121, 58.692788], [13.084048, 58.683074], [13.069035, 58.671594], [13.061382, 58.66188], [13.061971, 58.644807], [13.075806, 58.640686], [13.094056, 58.638625], [13.109069, 58.628323], [13.138211, 58.639214], [13.149985, 58.64569], [13.163821, 58.655698], [13.170591, 58.648045], [13.165292, 58.64569], [13.156461, 58.638331], [13.149691, 58.634504], [13.170885, 58.627145], [13.18737, 58.625968], [13.19885, 58.63421], [13.204737, 58.655698]], [[13.568571, 59.313014], [13.562684, 59.315957], [13.561507, 59.320078], [13.56239, 59.32626], [13.561801, 59.333913], [13.533836, 59.342744], [13.497335, 59.343627], [13.460245, 59.334797], [13.431398, 59.313014], [13.450826, 59.316252], [13.472903, 59.313897], [13.486149, 59.303888], [13.479379, 59.285638], [13.48821, 59.275629], [13.499984, 59.271214], [13.508227, 59.274158], [13.507049, 59.285638], [13.547377, 59.278867], [13.533836, 59.299767], [13.527655, 59.306832], [13.568571, 59.306832], [13.568571, 59.313014]], [[13.84233, 58.819954], [13.821724, 58.83997], [13.794054, 58.831728], [13.779925, 58.825547], [13.774037, 58.816421], [13.771977, 58.803469], [13.76609, 58.799643], [13.757259, 58.803175], [13.746073, 58.812595], [13.743424, 58.82172], [13.74519, 58.830551], [13.739597, 58.837321], [13.715459, 58.83997], [13.704273, 58.836438], [13.698386, 58.828196], [13.691027, 58.806413], [13.711044, 58.78463], [13.712221, 58.776976], [13.711927, 58.761081], [13.71752, 58.752544], [13.730766, 58.754605], [13.75667, 58.764908], [13.769033, 58.76373], [13.791111, 58.758726], [13.801413, 58.757254], [13.811127, 58.759609], [13.813188, 58.765202], [13.812599, 58.772267], [13.814954, 58.779037], [13.83085, 58.800526], [13.84233, 58.819954]]]}}, {"type": "Feature", "properties": {"name": "V\u00e4ttern"}, "geometry": {"type": "Polygon", "coordinates": [[[14.913227, 58.799054], [14.912049, 58.784041], [14.924707, 58.771678], [14.929122, 58.782275], [14.937659, 58.78934], [14.947962, 58.791106], [14.958853, 58.785219], [14.960325, 58.778154], [14.95797, 58.766968], [14.952671, 58.751072], [14.945018, 58.735471], [14.926179, 58.709861], [14.918525, 58.696615], [14.915287, 58.677776], [14.919408, 58.640097], [14.918525, 58.628323], [14.906456, 58.618609], [14.842874, 58.586817], [14.852882, 58.582402], [14.862596, 58.580341], [14.88379, 58.579753], [14.889972, 58.577692], [14.902335, 58.567684], [14.91146, 58.565623], [14.94649, 58.568272], [14.961502, 58.565034], [14.973277, 58.552082], [14.958853, 58.544134], [14.954732, 58.533832], [14.961502, 58.52559], [14.979459, 58.524706], [14.971511, 58.515876], [14.96003, 58.511166], [14.939131, 58.50469], [14.928534, 58.495564], [14.918231, 58.484084], [14.907045, 58.474076], [14.88173, 58.466422], [14.871133, 58.460535], [14.859947, 58.458475], [14.832865, 58.474665], [14.817264, 58.477019], [14.801663, 58.475253], [14.788416, 58.469955], [14.772226, 58.45818], [14.723362, 58.411671], [14.714236, 58.405195], [14.702756, 58.399896], [14.690393, 58.396364], [14.678618, 58.394892], [14.670376, 58.391065], [14.620334, 58.333958], [14.616802, 58.326599], [14.62004, 58.316297], [14.634169, 58.305111], [14.637407, 58.295397], [14.632698, 58.286271], [14.599729, 58.261251], [14.595608, 58.251831], [14.602672, 58.22887], [14.603261, 58.216802], [14.59443, 58.202966], [14.544977, 58.158812], [14.540267, 58.151453], [14.523488, 58.112008], [14.514069, 58.10406], [14.493463, 58.093169], [14.459023, 58.060789], [14.444305, 58.040772], [14.438123, 58.021344], [14.427526, 58.006037], [14.35629, 57.9766], [14.338628, 57.961294], [14.285642, 57.888291], [14.276517, 57.866508], [14.27063, 57.857089], [14.26592, 57.846491], [14.264742, 57.832656], [14.26592, 57.821471], [14.267392, 57.818821], [14.252674, 57.804692], [14.229419, 57.7938], [14.202043, 57.787324], [14.17555, 57.784675], [14.155533, 57.792328], [14.146408, 57.810285], [14.137283, 57.853851], [14.125803, 57.871218], [14.112262, 57.88417], [14.10137, 57.898005], [14.096661, 57.918316], [14.094011, 57.921554], [14.089007, 57.932446], [14.086652, 57.943926], [14.123448, 57.9766], [14.155239, 58.018106], [14.154062, 58.023993], [14.152001, 58.028409], [14.15465, 58.034885], [14.167308, 58.053724], [14.183498, 58.093169], [14.207341, 58.127904], [14.210579, 58.146154], [14.21264, 58.182067], [14.222943, 58.200612], [14.235895, 58.213858], [14.244137, 58.22681], [14.239427, 58.244766], [14.257972, 58.257424], [14.278578, 58.30305], [14.297711, 58.313059], [14.316256, 58.319535], [14.332152, 58.335725], [14.380428, 58.409316], [14.398089, 58.428155], [14.414574, 58.436397], [14.438712, 58.44199], [14.441067, 58.45612], [14.441361, 58.473781], [14.459317, 58.491149], [14.464027, 58.491443], [14.478745, 58.489383], [14.486693, 58.491149], [14.491992, 58.49527], [14.49523, 58.500569], [14.500234, 58.510871], [14.511714, 58.527944], [14.516424, 58.540602], [14.510536, 58.546489], [14.510536, 58.556203], [14.521134, 58.613899], [14.553808, 58.642452], [14.74956, 58.730761], [14.767811, 58.744302], [14.776642, 58.749306], [14.785767, 58.751956], [14.792243, 58.75696], [14.797836, 58.77992], [14.804901, 58.785513], [14.822562, 58.792283], [14.852293, 58.81024], [14.859947, 58.816421], [14.867011, 58.819071], [14.887028, 58.81701], [14.897625, 58.819954], [14.907928, 58.835849], [14.907928, 58.871467], [14.918525, 58.881476], [14.929122, 58.863814], [14.976809, 58.850568], [14.993588, 58.8332], [14.978281, 58.836438], [14.972688, 58.83997], [14.966212, 58.84733], [14.949433, 58.835849], [14.931772, 58.82643], [14.922058, 58.814066], [14.913227, 58.799054]]]}}, {"type": "Feature", "properties": {"name": "Storsj\u00f6n"}, "geometry": {"type": "Polygon", "coordinates": [[[14.141109, 63.20804], [14.158183, 63.212161], [14.153473, 63.225996], [14.142876, 63.233649], [14.129924, 63.238948], [14.116677, 63.246896], [14.088713, 63.28428], [14.081354, 63.291345], [14.064575, 63.28899], [14.047796, 63.289579], [14.035727, 63.31666], [14.024247, 63.324314], [13.993044, 63.334911], [14.017182, 63.333439], [14.040437, 63.328729], [14.094011, 63.30989], [14.116677, 63.308418], [14.176433, 63.315483], [14.198511, 63.315188], [14.270335, 63.285163], [14.297711, 63.281042], [14.308014, 63.283103], [14.323027, 63.292522], [14.335684, 63.293994], [14.347459, 63.29105], [14.361294, 63.284574], [14.373952, 63.276038], [14.383666, 63.267207], [14.39544, 63.2519], [14.428115, 63.240125], [14.459023, 63.23777], [14.472858, 63.249839], [14.471386, 63.260731], [14.468442, 63.270445], [14.468148, 63.279276], [14.472858, 63.287812], [14.484044, 63.293405], [14.495818, 63.292522], [14.50671, 63.287518], [14.513774, 63.281042], [14.512891, 63.259848], [14.52967, 63.248368], [14.575885, 63.232472], [14.593547, 63.217459], [14.610326, 63.199209], [14.627399, 63.184196], [14.691276, 63.168301], [14.729543, 63.144163], [14.795187, 63.088528], [14.761335, 63.092355], [14.733959, 63.108545], [14.708349, 63.128267], [14.678913, 63.14328], [14.528198, 63.173893], [14.49729, 63.174777], [14.461378, 63.162708], [14.439595, 63.158881], [14.420167, 63.152699], [14.411336, 63.140042], [14.414868, 63.126501], [14.420755, 63.1109], [14.424877, 63.096181], [14.421344, 63.08529], [14.418106, 63.066745], [14.43253, 63.044373], [14.452841, 63.020824], [14.466087, 62.999924], [14.459317, 62.999924], [14.467559, 62.965189], [14.47639, 62.841556], [14.485221, 62.83773], [14.483749, 62.829193], [14.477862, 62.820362], [14.472858, 62.814769], [14.435768, 62.797402], [14.431941, 62.794458], [14.413396, 62.796224], [14.41634, 62.808293], [14.445482, 62.841556], [14.436651, 62.853625], [14.430469, 62.859218], [14.423405, 62.861573], [14.411336, 62.863339], [14.410747, 62.860101], [14.403094, 62.855097], [14.394557, 62.853331], [14.380722, 62.873053], [14.37719, 62.87688], [14.352169, 62.888949], [14.345987, 62.893364], [14.339805, 62.901312], [14.3401, 62.905728], [14.342749, 62.910143], [14.342749, 62.917797], [14.333035, 62.988444], [14.336567, 62.994626], [14.344809, 62.984617], [14.374246, 62.915147], [14.389258, 62.898369], [14.411336, 62.889832], [14.407509, 62.898957], [14.405154, 62.907788], [14.403977, 62.928099], [14.399267, 62.936342], [14.391908, 62.943701], [14.392202, 62.949294], [14.410747, 62.951354], [14.430764, 62.961068], [14.436945, 62.982851], [14.432824, 63.00434], [14.421344, 63.014054], [14.409864, 63.020824], [14.396618, 63.036425], [14.37719, 63.067922], [14.36306, 63.104718], [14.350991, 63.118847], [14.328325, 63.130033], [14.233834, 63.152405], [14.219116, 63.161236], [14.0737, 63.189495], [14.052506, 63.201858], [14.02042, 63.232472], [13.99952, 63.248073], [13.924752, 63.27486], [14.03661, 63.25661], [14.054566, 63.243069], [14.060159, 63.236299], [14.092539, 63.212161], [14.141109, 63.20804]]]}}, {"type": "Feature", "properties": {"name": "Hj\u00e4lmaren"}, "geometry": {"type": "Polygon", "coordinates": [[[16.403592, 59.304183], [16.426258, 59.319784], [16.412423, 59.296235], [16.377099, 59.281222], [16.128362, 59.244721], [16.055359, 59.221761], [16.020919, 59.216757], [15.95557, 59.216168], [15.942324, 59.213224], [15.928194, 59.204393], [15.90906, 59.1988], [15.888455, 59.196151], [15.870793, 59.19674], [15.880801, 59.186437], [15.909944, 59.179667], [15.91171, 59.168775], [15.901996, 59.162299], [15.866672, 59.156706], [15.825755, 59.142282], [15.700062, 59.142282], [15.667976, 59.146992], [15.610575, 59.170247], [15.579373, 59.17584], [15.574957, 59.179667], [15.586143, 59.188498], [15.617934, 59.204688], [15.646782, 59.207337], [15.658557, 59.209986], [15.637362, 59.229709], [15.558767, 59.23118], [15.534924, 59.25208], [15.544638, 59.252375], [15.569659, 59.258262], [15.545226, 59.267976], [15.452207, 59.253846], [15.411291, 59.25208], [15.341526, 59.269153], [15.266169, 59.270625], [15.239088, 59.274452], [15.227019, 59.285638], [15.256455, 59.299473], [15.431896, 59.278867], [15.446026, 59.282988], [15.491358, 59.301828], [15.518734, 59.318018], [15.537867, 59.322728], [15.57584, 59.326554], [15.607043, 59.311836], [15.645899, 59.306243], [15.723317, 59.306832], [15.751576, 59.299178], [15.783956, 59.268565], [15.816041, 59.265032], [15.815453, 59.281222], [15.82605, 59.288581], [15.833703, 59.29594], [15.823106, 59.306832], [15.838413, 59.323611], [15.850188, 59.31684], [15.856075, 59.301533], [15.854014, 59.292997], [16.022391, 59.289759], [16.056831, 59.271803], [16.082735, 59.26621], [16.108639, 59.266798], [16.146318, 59.281811], [16.226974, 59.285638], [16.26583, 59.301533], [16.289379, 59.307421], [16.306158, 59.303005], [16.331473, 59.292702], [16.367974, 59.294174], [16.403592, 59.304183]]]}}, {"type": "Feature", "properties": {"name": "unnamed"}, "geometry": {"type": "Polygon", "coordinates": [[[12.924208, 63.618678], [12.856504, 63.671369], [12.898304, 63.669603], [12.911256, 63.671369], [12.920381, 63.674607], [12.928918, 63.682849], [12.938043, 63.688442], [13.007219, 63.717878], [13.064031, 63.732008], [13.244476, 63.732891], [13.27303, 63.726121], [13.3216, 63.67755], [13.306882, 63.676962], [13.290397, 63.683438], [13.259489, 63.699333], [13.234468, 63.706398], [13.023703, 63.705221], [12.979549, 63.691974], [13.001626, 63.688148], [13.033712, 63.679022], [13.062559, 63.666953], [13.074923, 63.654296], [13.088758, 63.636928], [13.119666, 63.626331], [13.154107, 63.618972], [13.177361, 63.609847], [13.037244, 63.595717], [13.016344, 63.586886], [13.024292, 63.567458], [13.044897, 63.546558], [13.061382, 63.534195], [13.175301, 63.486214], [13.237412, 63.47179], [13.323955, 63.46237], [13.354863, 63.451184], [13.373997, 63.433817], [13.363105, 63.411445], [13.353685, 63.411151], [13.341028, 63.417333], [13.306882, 63.440587], [13.293341, 63.447063], [13.278917, 63.45089], [13.22652, 63.455306], [13.158816, 63.474439], [13.051079, 63.522421], [13.005158, 63.530957], [12.989851, 63.539788], [12.965714, 63.56216], [12.949524, 63.573051], [12.948052, 63.575112], [12.945108, 63.578055], [12.943931, 63.593068], [12.941576, 63.598955], [12.924208, 63.618678]]]}}, {"type": "Feature", "properties": {"name": "Storavan"}, "geometry": {"type": "Polygon", "coordinates": [[[17.953419, 65.898822], [18.014941, 65.886753], [18.037313, 65.871152], [18.065278, 65.817283], [18.077347, 65.802271], [18.097952, 65.786964], [18.12209, 65.774601], [18.1477, 65.76577], [18.172721, 65.761354], [18.17066, 65.766064], [18.168011, 65.777544], [18.16595, 65.782254], [18.180668, 65.780193], [18.206867, 65.770774], [18.221291, 65.768713], [18.317548, 65.779016], [18.330205, 65.777839], [18.341391, 65.771657], [18.350517, 65.765181], [18.364057, 65.757822], [18.378775, 65.75164], [18.392611, 65.748108], [18.384957, 65.745458], [18.364646, 65.733978], [18.401147, 65.703953], [18.529784, 65.658915], [18.480625, 65.650968], [18.380247, 65.645963], [18.3305, 65.651262], [18.218936, 65.688941], [18.186556, 65.686291], [18.213637, 65.668629], [18.227472, 65.656855], [18.224529, 65.651262], [18.204512, 65.655677], [18.179785, 65.674517], [18.16595, 65.679227], [18.153587, 65.674811], [18.139752, 65.663331], [18.129449, 65.650673], [18.128566, 65.641842], [18.140341, 65.634483], [18.179197, 65.620354], [18.193915, 65.617999], [18.18214, 65.605636], [18.169188, 65.600926], [18.155059, 65.60122], [18.127094, 65.607402], [18.089416, 65.62212], [18.077347, 65.63154], [18.087649, 65.642137], [18.091476, 65.64508], [18.083234, 65.649496], [18.077052, 65.655383], [18.072931, 65.663037], [18.071165, 65.672456], [18.081762, 65.671573], [18.111493, 65.664803], [18.118852, 65.665097], [18.12209, 65.677755], [18.112082, 65.686291], [18.096775, 65.69159], [18.084706, 65.693062], [18.084706, 65.699832], [18.112082, 65.706014], [18.112082, 65.713373], [18.082351, 65.71249], [18.071165, 65.716316], [18.0641, 65.727797], [18.055858, 65.747519], [18.054386, 65.757527], [18.05733, 65.768713], [18.04791, 65.774895], [18.021123, 65.801976], [18.005522, 65.831118], [17.956363, 65.841127], [17.940762, 65.857022], [17.960778, 65.86291], [17.971376, 65.864382], [17.982267, 65.864382], [17.961073, 65.881455], [17.933697, 65.890874], [17.948121, 65.901471], [17.953419, 65.898822]]]}}, {"type": "Feature", "properties": {"name": "Uddjaure"}, "geometry": {"type": "Polygon", "coordinates": [[[17.87188, 65.912069], [17.8604, 65.899705], [17.85363, 65.894112], [17.847743, 65.891463], [17.843621, 65.889108], [17.843621, 65.883515], [17.844799, 65.876745], [17.843916, 65.871152], [17.834791, 65.860555], [17.824488, 65.852901], [17.812125, 65.847308], [17.796523, 65.843187], [17.783571, 65.841421], [17.748248, 65.843187], [17.739417, 65.845837], [17.734412, 65.852313], [17.731763, 65.859377], [17.727642, 65.864382], [17.711746, 65.870858], [17.659055, 65.884693], [17.676717, 65.890874], [17.696145, 65.887048], [17.714101, 65.885576], [17.727642, 65.898233], [17.726465, 65.902649], [17.724993, 65.904415], [17.724993, 65.906476], [17.727642, 65.912069], [17.712629, 65.915895], [17.689963, 65.917956], [17.668769, 65.922077], [17.659055, 65.932674], [17.667003, 65.938267], [17.707625, 65.937384], [17.720872, 65.939444], [17.717045, 65.947981], [17.730586, 65.949453], [17.768853, 65.946804], [17.748248, 65.968586], [17.711158, 65.984777], [17.639038, 66.007737], [17.637861, 66.024221], [17.614606, 66.031286], [17.586347, 66.028637], [17.569568, 66.015096], [17.581637, 66.013624], [17.592235, 66.009209], [17.602243, 66.002733], [17.611074, 65.993902], [17.515405, 66.015096], [17.535422, 66.020983], [17.54337, 66.021866], [17.533067, 66.026576], [17.526591, 66.032464], [17.524825, 66.040117], [17.529829, 66.049242], [17.513639, 66.05248], [17.503925, 66.060134], [17.495094, 66.068965], [17.481554, 66.076029], [17.464186, 66.077796], [17.443286, 66.076618], [17.405608, 66.070436], [17.379998, 66.059545], [17.376466, 66.047476], [17.382647, 66.030992], [17.385885, 66.007737], [17.378526, 66.007737], [17.364397, 66.026871], [17.341731, 66.046299], [17.327307, 66.065138], [17.337315, 66.083388], [17.326129, 66.086627], [17.315827, 66.092219], [17.307879, 66.100462], [17.303169, 66.111353], [17.338787, 66.109881], [17.371461, 66.103994], [17.392067, 66.092219], [17.399426, 66.090159], [17.408846, 66.091336], [17.411495, 66.094869], [17.413555, 66.099579], [17.420032, 66.103994], [17.451823, 66.111353], [17.478316, 66.109881], [17.502159, 66.099579], [17.553084, 66.052775], [17.563387, 66.049242], [17.58046, 66.047476], [17.59665, 66.048065], [17.603715, 66.052775], [17.594589, 66.073086], [17.572806, 66.088098], [17.546314, 66.098401], [17.522176, 66.103994], [17.53395, 66.112825], [17.547786, 66.113414], [17.576928, 66.103994], [17.597239, 66.100167], [17.603715, 66.097518], [17.608719, 66.092219], [17.609308, 66.086038], [17.609308, 66.080445], [17.611074, 66.076029], [17.633446, 66.0619], [17.655523, 66.056013], [17.678189, 66.060134], [17.700561, 66.076029], [17.692613, 66.085449], [17.699383, 66.087215], [17.724404, 66.083388], [17.732352, 66.078679], [17.75178, 66.056601], [17.762083, 66.049242], [17.773857, 66.046299], [17.782099, 66.046887], [17.787692, 66.053363], [17.789164, 66.06661], [17.798289, 66.071614], [17.842444, 66.073674], [17.857751, 66.076029], [17.844505, 66.08015], [17.80977, 66.097518], [17.759433, 66.111647], [17.745304, 66.120773], [17.730586, 66.125777], [17.66612, 66.131075], [17.653168, 66.134902], [17.644337, 66.143144], [17.637861, 66.15227], [17.631679, 66.158451], [17.597239, 66.169637], [17.583992, 66.178468], [17.597533, 66.185827], [17.604303, 66.184061], [17.61961, 66.174641], [17.624615, 66.172581], [17.632268, 66.175524], [17.63845, 66.17994], [17.639627, 66.184061], [17.631974, 66.185827], [17.611957, 66.187888], [17.620199, 66.217913], [17.64522, 66.213792], [17.665826, 66.214381], [17.673185, 66.213792], [17.678189, 66.211437], [17.681427, 66.203195], [17.686725, 66.199368], [17.726465, 66.190537], [17.812125, 66.187888], [17.851275, 66.179646], [17.834202, 66.173464], [17.799761, 66.176113], [17.782982, 66.172581], [17.816246, 66.161984], [17.827137, 66.155508], [17.831258, 66.14962], [17.833907, 66.136668], [17.837734, 66.131075], [17.85569, 66.124599], [17.903083, 66.11989], [17.912797, 66.114297], [17.923689, 66.095457], [17.949004, 66.086921], [17.978735, 66.087215], [18.026127, 66.100167], [18.052914, 66.097518], [18.078524, 66.088687], [18.098541, 66.076029], [18.112082, 66.058956], [18.108255, 66.05042], [18.090887, 66.048065], [17.940467, 66.062783], [17.909853, 66.051008], [17.962839, 65.996845], [17.933403, 65.98095], [17.942233, 65.972708], [17.951947, 65.966526], [17.962839, 65.962405], [17.974908, 65.960639], [17.957835, 65.947981], [17.930753, 65.941799], [17.91368, 65.932968], [17.926338, 65.912069], [17.948121, 65.901471], [17.933697, 65.890874], [17.87188, 65.912069]]]}}, {"type": "Feature", "properties": {"name": "unnamed"}, "geometry": {"type": "Polygon", "coordinates": [[[15.541694, 63.781167], [15.543755, 63.791764], [15.541105, 63.836507], [15.538456, 63.838273], [15.53875, 63.839745], [15.545226, 63.846221], [15.54817, 63.852697], [15.546109, 63.858879], [15.541105, 63.864766], [15.534924, 63.869476], [15.519911, 63.873008], [15.481349, 63.869182], [15.466042, 63.869476], [15.40452, 63.89744], [15.335345, 63.913631], [15.30267, 63.925111], [15.275, 63.945716], [15.264992, 63.933942], [15.253806, 63.932764], [15.24262, 63.939535], [15.2332, 63.952487], [15.259104, 63.975153], [15.261165, 63.979274], [15.272351, 63.972798], [15.276178, 63.95072], [15.285008, 63.945716], [15.312679, 63.940418], [15.372435, 63.91628], [15.400988, 63.910981], [15.424243, 63.909509], [15.429836, 63.914219], [15.431896, 63.928349], [15.426892, 63.939829], [15.415117, 63.943656], [15.401577, 63.946011], [15.391568, 63.952487], [15.391568, 63.966616], [15.450441, 63.951309], [15.466042, 63.962495], [15.452207, 63.978685], [15.356833, 64.001057], [15.337405, 64.012537], [15.317094, 64.030787], [15.310618, 64.047566], [15.353595, 64.062873], [15.354184, 64.081418], [15.343293, 64.102024], [15.329457, 64.117036], [15.303259, 64.131166], [15.253512, 64.149711], [15.207002, 64.185034], [15.149601, 64.206228], [15.123403, 64.219475], [15.14548, 64.224773], [15.139298, 64.243907], [15.118987, 64.264513], [15.099853, 64.274227], [15.075716, 64.279231], [14.993588, 64.315143], [14.808139, 64.346051], [14.729249, 64.339575], [14.692159, 64.342813], [14.592075, 64.374016], [14.337156, 64.385496], [14.322143, 64.390795], [14.307425, 64.401686], [14.297122, 64.412872], [14.285642, 64.421409], [14.236778, 64.428768], [14.204987, 64.439365], [14.17555, 64.454672], [14.134633, 64.485874], [14.130512, 64.493233], [14.138755, 64.504125], [14.1364, 64.515605], [14.125803, 64.524436], [14.109907, 64.527968], [14.063103, 64.531206], [13.883247, 64.590079], [13.84439, 64.613628], [13.831733, 64.616572], [13.747839, 64.625109], [13.72635, 64.630996], [13.710455, 64.641299], [13.709277, 64.649835], [13.71958, 64.656017], [13.739302, 64.658372], [13.834676, 64.651307], [14.076055, 64.55711], [14.109907, 64.54828], [14.102842, 64.555933], [14.114617, 64.55976], [14.127863, 64.559171], [14.140815, 64.55505], [14.151412, 64.54828], [14.165542, 64.534739], [14.166425, 64.528263], [14.161421, 64.52267], [14.158183, 64.51119], [14.164659, 64.487641], [14.180554, 64.472334], [14.241782, 64.447018], [14.317139, 64.432889], [14.32597, 64.427296], [14.339217, 64.414638], [14.371008, 64.401686], [14.416929, 64.399626], [14.500234, 64.405219], [14.538795, 64.400803], [14.618862, 64.381964], [14.658307, 64.377843], [14.671554, 64.374605], [14.69893, 64.359887], [14.712765, 64.356649], [14.962974, 64.342813], [14.988878, 64.337515], [15.042747, 64.311022], [15.068651, 64.301308], [15.12929, 64.287767], [15.159315, 64.273343], [15.172267, 64.250383], [15.179626, 64.230661], [15.197288, 64.211821], [15.21966, 64.20093], [15.240854, 64.205934], [15.234967, 64.216237], [15.234084, 64.225362], [15.234967, 64.235076], [15.2332, 64.246851], [15.227313, 64.258625], [15.21024, 64.283941], [15.206708, 64.291888], [15.184925, 64.314554], [15.13606, 64.316321], [15.08278, 64.311611], [15.048928, 64.315143], [15.040098, 64.327506], [15.040981, 64.340459], [15.049517, 64.351056], [15.062469, 64.356649], [15.073655, 64.341342], [15.075421, 64.33987], [15.08072, 64.336926], [15.116927, 64.336632], [15.133705, 64.339281], [15.145186, 64.342813], [15.155488, 64.342519], [15.168735, 64.333099], [15.186102, 64.326918], [15.261165, 64.329273], [15.261165, 64.322502], [15.236733, 64.308373], [15.236144, 64.291594], [15.248213, 64.274521], [15.261165, 64.260391], [15.270585, 64.245968], [15.279416, 64.227128], [15.285892, 64.207112], [15.288541, 64.188567], [15.291779, 64.178558], [15.305908, 64.164723], [15.308852, 64.154715], [15.311796, 64.137053], [15.319155, 64.133815], [15.329752, 64.13617], [15.34241, 64.136759], [15.357422, 64.133521], [15.366547, 64.129988], [15.383915, 64.117036], [15.386858, 64.113504], [15.393334, 64.101435], [15.39775, 64.096431], [15.40452, 64.093487], [15.421593, 64.089955], [15.428364, 64.086128], [15.424537, 64.07347], [15.375673, 64.046389], [15.363604, 64.031376], [15.371257, 64.019602], [15.389508, 64.011948], [15.410113, 64.008121], [15.433368, 64.006944], [15.436606, 64.005472], [15.438372, 64.002528], [15.442493, 63.99723], [15.449852, 63.993992], [15.457212, 63.996052], [15.466042, 64.001057], [15.476345, 63.993992], [15.479878, 63.989576], [15.481055, 63.983689], [15.486648, 63.973092], [15.504604, 63.948365], [15.516084, 63.924522], [15.532863, 63.910393], [15.544049, 63.895969], [15.534924, 63.876835], [15.543755, 63.874186], [15.549347, 63.870653], [15.559061, 63.859762], [15.569953, 63.85358], [15.59674, 63.850931], [15.632064, 63.835624], [15.691525, 63.839156], [15.730087, 63.828854], [15.752459, 63.826499], [15.761584, 63.822083], [15.765705, 63.815019], [15.770121, 63.795885], [15.774536, 63.787348], [15.782484, 63.780872], [15.800734, 63.773513], [15.80986, 63.767626], [15.824284, 63.755557], [15.82811, 63.749375], [15.829876, 63.74025], [15.765705, 63.749964], [15.747749, 63.760856], [15.739801, 63.77057], [15.734503, 63.78205], [15.735974, 63.792941], [15.747749, 63.801772], [15.733325, 63.813841], [15.713014, 63.821495], [15.672097, 63.828559], [15.626471, 63.830031], [15.608515, 63.824144], [15.611458, 63.809131], [15.591736, 63.80501], [15.57584, 63.796474], [15.570542, 63.783816], [15.582905, 63.767626], [15.568481, 63.760856], [15.535512, 63.74025], [15.520794, 63.74025], [15.511963, 63.751436], [15.519322, 63.762622], [15.541694, 63.781167]]]}}, {"type": "Feature", "properties": {"name": "unnamed"}, "geometry": {"type": "Polygon", "coordinates": [[[13.603906804030153, 64.68028918757011], [13.622428860288487, 64.69453534136298], [13.643634, 64.685748], [13.61096, 64.679566], [13.603906804030153, 64.68028918757011]]]}}, {"type": "Feature", "properties": {"name": "unnamed"}, "geometry": {"type": "Polygon", "coordinates": [[[16.426847, 60.157839], [16.433912, 60.156367], [16.433029, 60.149596], [16.417722, 60.144298], [16.381515, 60.144298], [16.368268, 60.138705], [16.35826, 60.131346], [16.345897, 60.126342], [16.331767, 60.123104], [16.317049, 60.121632], [16.321759, 60.138705], [16.329412, 60.149302], [16.34207, 60.154306], [16.402415, 60.155778], [16.426847, 60.157839]]]}}, {"type": "Feature", "properties": {"name": "unnamed"}, "geometry": {"type": "Polygon", "coordinates": [[[17.261664, 60.375668], [17.245768, 60.36772], [17.23105, 60.358006], [17.224868, 60.351236], [17.215448, 60.336812], [17.21015, 60.33063], [17.199847, 60.327687], [17.171588, 60.333574], [17.158636, 60.333868], [17.155398, 60.33063], [17.149805, 60.323566], [17.142741, 60.316501], [17.135087, 60.313557], [17.116836, 60.318267], [17.106828, 60.330042], [17.108594, 60.343877], [17.12449, 60.355063], [17.082101, 60.351236], [17.059435, 60.345643], [17.049427, 60.337695], [17.045306, 60.324449], [17.0247, 60.289419], [17.015281, 60.278822], [16.997913, 60.27058], [16.98084, 60.271463], [16.962884, 60.275879], [16.94375, 60.278822], [16.85809, 60.272641], [16.866333, 60.260572], [16.871042, 60.255862], [16.878696, 60.251446], [16.868982, 60.24497], [16.837191, 60.232313], [16.848965, 60.221716], [16.849259, 60.208764], [16.840429, 60.198755], [16.823944, 60.196695], [16.83042, 60.190513], [16.827477, 60.182271], [16.833364, 60.176089], [16.84455, 60.171968], [16.85809, 60.170202], [16.85809, 60.162548], [16.816291, 60.167258], [16.806282, 60.161665], [16.816585, 60.142237], [16.806577, 60.144592], [16.797746, 60.148125], [16.791564, 60.154601], [16.789209, 60.166375], [16.780967, 60.171674], [16.662044, 60.184626], [16.630547, 60.180505], [16.60376, 60.162548], [16.583154, 60.171085], [16.564609, 60.167847], [16.546948, 60.160488], [16.528697, 60.155778], [16.508386, 60.157544], [16.495728, 60.165198], [16.487486, 60.176678], [16.480716, 60.190513], [16.505737, 60.179916], [16.516039, 60.177267], [16.531641, 60.176384], [16.544298, 60.17815], [16.553129, 60.182565], [16.560488, 60.187569], [16.569614, 60.190513], [16.579622, 60.189336], [16.589336, 60.185509], [16.598461, 60.183154], [16.621422, 60.193457], [16.645559, 60.19905], [16.686182, 60.204348], [16.746526, 60.191985], [16.768898, 60.196695], [16.764483, 60.206997], [16.761539, 60.211119], [16.772136, 60.222304], [16.799218, 60.227309], [16.809815, 60.2382], [16.81217, 60.251446], [16.806871, 60.260572], [16.79804, 60.26852], [16.789209, 60.278822], [16.838662, 60.277056], [16.885761, 60.283238], [16.929032, 60.297956], [17.042068, 60.368015], [17.066795, 60.374491], [17.121841, 60.380084], [17.145684, 60.38862], [17.140091, 60.391858], [17.137442, 60.394802], [17.135381, 60.39804], [17.131849, 60.402161], [17.206912, 60.40952], [17.224868, 60.413641], [17.234288, 60.423355], [17.24253, 60.434541], [17.255482, 60.443666], [17.273144, 60.446315], [17.313177, 60.443372], [17.347912, 60.452497], [17.384119, 60.457501], [17.399426, 60.46486], [17.385002, 60.475752], [17.36999, 60.482817], [17.337315, 60.492236], [17.352328, 60.508132], [17.380292, 60.517257], [17.407668, 60.517257], [17.420032, 60.505777], [17.41856, 60.50195], [17.418265, 60.498418], [17.416794, 60.49518], [17.412378, 60.492236], [17.423858, 60.463389], [17.392361, 60.436307], [17.345557, 60.416585], [17.309939, 60.40952], [17.311411, 60.39333], [17.298753, 60.384793], [17.261664, 60.375668]]]}}, {"type": "Feature", "properties": {"name": "unnamed"}, "geometry": {"type": "Polygon", "coordinates": [[[13.335141, 61.608759], [13.383416, 61.564016], [13.397251, 61.554302], [13.424922, 61.543999], [13.513231, 61.526926], [13.565333, 61.509264], [13.593003, 61.505143], [13.616847, 61.513385], [13.613903, 61.517212], [13.609488, 61.526926], [13.67778, 61.485421], [13.715165, 61.44421], [13.72635, 61.420661], [13.711927, 61.410358], [13.698975, 61.4186], [13.680135, 61.458928], [13.67101, 61.472174], [13.644223, 61.482183], [13.582112, 61.490425], [13.53884, 61.511914], [13.475847, 61.52516], [13.424038, 61.52987], [13.397546, 61.537523], [13.330725, 61.570786], [13.323955, 61.576968], [13.317773, 61.598457], [13.309236, 61.606993], [13.282449, 61.623772], [13.245948, 61.636135], [13.236529, 61.642317], [13.211802, 61.663511], [13.221516, 61.662628], [13.230347, 61.659979], [13.238589, 61.655858], [13.245948, 61.64997], [13.314829, 61.622889], [13.335141, 61.608759]]]}}, {"type": "Feature", "properties": {"name": "Siljan"}, "geometry": {"type": "Polygon", "coordinates": [[[15.08278, 60.88845], [15.096615, 60.881974], [15.08543, 60.867845], [15.05511, 60.850772], [15.048928, 60.83782], [15.037154, 60.834876], [15.010955, 60.837231], [14.985051, 60.834876], [14.973277, 60.81692], [14.965918, 60.782185], [14.964152, 60.76364], [14.977692, 60.731554], [14.967978, 60.725373], [14.952966, 60.729199], [14.945312, 60.741563], [14.930594, 60.750099], [14.878197, 60.753337], [14.88379, 60.766584], [14.893799, 60.768644], [14.921174, 60.764523], [14.931772, 60.766584], [14.938836, 60.774531], [14.938248, 60.780713], [14.934715, 60.7866], [14.931772, 60.792782], [14.924412, 60.813388], [14.912344, 60.822513], [14.894387, 60.82369], [14.796658, 60.813682], [14.774581, 60.806912], [14.801368, 60.779536], [14.776347, 60.780713], [14.743379, 60.794548], [14.726894, 60.792782], [14.726305, 60.789838], [14.731015, 60.780419], [14.730132, 60.776298], [14.722479, 60.771882], [14.715708, 60.773648], [14.709527, 60.777475], [14.702756, 60.779536], [14.693337, 60.783951], [14.69157, 60.793959], [14.694514, 60.805145], [14.699518, 60.813093], [14.65713, 60.845179], [14.507004, 60.90258], [14.484044, 60.920536], [14.479628, 60.922891], [14.477862, 60.934077], [14.479628, 60.944674], [14.485516, 60.948795], [14.496701, 60.940847], [14.513186, 60.93702], [14.530553, 60.950267], [14.561756, 60.985591], [14.553808, 60.986474], [14.541445, 60.9903], [14.53438, 60.991772], [14.564994, 61.002369], [14.595608, 60.995305], [14.621217, 60.976171], [14.637407, 60.950856], [14.652714, 60.938787], [14.668316, 60.935254], [14.702756, 60.937315], [14.718063, 60.934077], [14.743967, 60.919947], [14.782529, 60.912294], [14.860241, 60.886979], [14.87702, 60.871966], [14.891149, 60.85607], [14.922646, 60.86078], [14.973277, 60.881974], [14.977104, 60.885507], [14.979753, 60.890217], [14.983874, 60.894043], [14.993588, 60.895809], [15.067179, 60.892277], [15.08278, 60.88845]]]}}, {"type": "Feature", "properties": {"name": "Tornetr\u00e4sk"}, "geometry": {"type": "Polygon", "coordinates": [[[20.807574, 67.864586], [20.81876, 67.844863], [20.779021, 67.831617], [20.738398, 67.834855], [20.696893, 67.842803], [20.654505, 67.844863], [20.684235, 67.826024], [20.784319, 67.817488], [20.811401, 67.789523], [20.798154, 67.788934], [20.785791, 67.790995], [20.774311, 67.796293], [20.763714, 67.803947], [20.724858, 67.805713], [20.634782, 67.821609], [20.599164, 67.834561], [20.578559, 67.839565], [20.533521, 67.840154], [20.462579, 67.872239], [20.399291, 67.919926], [20.376625, 67.926697], [20.372798, 67.93229], [20.373387, 67.944064], [20.371621, 67.955544], [20.362201, 67.961137], [20.340712, 67.962315], [20.32099, 67.966436], [20.284489, 67.981448], [20.275069, 67.997933], [20.270065, 68.002643], [20.259468, 68.004703], [20.222378, 68.002643], [20.207954, 68.006175], [20.175574, 68.018833], [20.1638, 68.026486], [20.077256, 68.106848], [20.053413, 68.141288], [20.040461, 68.156006], [20.026626, 68.16366], [20.006903, 68.168958], [19.972463, 68.173374], [19.930958, 68.191036], [19.495593, 68.249614], [19.501186, 68.277579], [19.474987, 68.284349], [19.410522, 68.27699], [19.335165, 68.27699], [19.316031, 68.279639], [19.17974, 68.313197], [19.112625, 68.341161], [19.07112, 68.352642], [18.796773, 68.339984], [18.727891, 68.351758], [18.591895, 68.440656], [18.569523, 68.471565], [18.564519, 68.474803], [18.573939, 68.483045], [18.591601, 68.477158], [18.622509, 68.461262], [18.707286, 68.439185], [18.755562, 68.437418], [18.790885, 68.421817], [18.830919, 68.421523], [18.85123, 68.416813], [18.870069, 68.410043], [19.112037, 68.372364], [19.220363, 68.336746], [19.477637, 68.319673], [19.562414, 68.301128], [19.783775, 68.296712], [19.799082, 68.300833], [19.816156, 68.308193], [19.833229, 68.312608], [19.848536, 68.307309], [19.859133, 68.300539], [19.887392, 68.289942], [19.900049, 68.283172], [19.880916, 68.27699], [19.859721, 68.275518], [19.828813, 68.277284], [19.833523, 68.278756], [19.838233, 68.283172], [19.809091, 68.292297], [19.564474, 68.269337], [19.596854, 68.258445], [19.629823, 68.257268], [19.69841, 68.262566], [19.710773, 68.260506], [19.728141, 68.251675], [19.792606, 68.246376], [19.842943, 68.235779], [19.971874, 68.234013], [20.051058, 68.220178], [20.085793, 68.208109], [20.070192, 68.203693], [20.029569, 68.204576], [20.010141, 68.201044], [20.030747, 68.182205], [20.076079, 68.155712], [20.091975, 68.139816], [20.09433, 68.12863], [20.093741, 68.117445], [20.09639, 68.108614], [20.122294, 68.101255], [20.13348, 68.092718], [20.184699, 68.040321], [20.206188, 68.023542], [20.226205, 68.016183], [20.257407, 68.015595], [20.273303, 68.017361], [20.29067, 68.022954], [20.296558, 68.028547], [20.298618, 68.040616], [20.305094, 68.04297], [20.311276, 68.041499], [20.332176, 68.029724], [20.316869, 68.001171], [20.315103, 67.988219], [20.325405, 67.97821], [20.368383, 67.963198], [20.413715, 67.954661], [20.409005, 67.968496], [20.410477, 67.982331], [20.421074, 68.009413], [20.43432, 67.986453], [20.441974, 67.967025], [20.442268, 67.946713], [20.434615, 67.919926], [20.453748, 67.911684], [20.511444, 67.877832], [20.539997, 67.853694], [20.578264, 67.847513], [20.61977, 67.847513], [20.647734, 67.851045], [20.659803, 67.856049], [20.672461, 67.866941], [20.681586, 67.872239], [20.694244, 67.876949], [20.722797, 67.884603], [20.736338, 67.88578], [20.761359, 67.88372], [20.786674, 67.877243], [20.807574, 67.864586]]]}}, {"type": "Feature", "properties": {"name": "Virihaure"}, "geometry": {"type": "Polygon", "coordinates": [[[16.345014, 67.38801], [16.302625, 67.392426], [16.338243, 67.409499], [16.395056, 67.412737], [16.500732, 67.405967], [16.484837, 67.422745], [16.456283, 67.4251], [16.398882, 67.42039], [16.402709, 67.43452], [16.391229, 67.443056], [16.357377, 67.453948], [16.370918, 67.45277], [16.384164, 67.453948], [16.395644, 67.458363], [16.405653, 67.467489], [16.380926, 67.47367], [16.371506, 67.478969], [16.364736, 67.488683], [16.398294, 67.496631], [16.621716, 67.486622], [16.848082, 67.511349], [16.906072, 67.529599], [16.890176, 67.535192], [16.854558, 67.542257], [16.826299, 67.544906], [16.816879, 67.547556], [16.807165, 67.549027], [16.796274, 67.546378], [16.770076, 67.536959], [16.761833, 67.535781], [16.727393, 67.537547], [16.696779, 67.542551], [16.667637, 67.551382], [16.638495, 67.563746], [16.638495, 67.570516], [16.741228, 67.577286], [16.896358, 67.560508], [16.951993, 67.546084], [16.981135, 67.54314], [17.033531, 67.549322], [17.083573, 67.563746], [17.046778, 67.572282], [17.035886, 67.577286], [17.069149, 67.586117], [17.107122, 67.584646], [17.17983, 67.570516], [17.17983, 67.563746], [16.907544, 67.517825], [16.840723, 67.470432], [16.786854, 67.463368], [16.686182, 67.461307], [16.531052, 67.438052], [16.480716, 67.446883], [16.491313, 67.438641], [16.522221, 67.428044], [16.528697, 67.416564], [16.539294, 67.40685], [16.563726, 67.404495], [16.61053, 67.405967], [16.782439, 67.379474], [16.760067, 67.365344], [16.672641, 67.378002], [16.638495, 67.37182], [16.629664, 67.361812], [16.635845, 67.357985], [16.649681, 67.35563], [16.665282, 67.351509], [16.686476, 67.336202], [16.706787, 67.316774], [16.69148, 67.31177], [16.670286, 67.311476], [16.648209, 67.314714], [16.631724, 67.320307], [16.612885, 67.324428], [16.571085, 67.319423], [16.549008, 67.324133], [16.511035, 67.350037], [16.396822, 67.34886], [16.351195, 67.357691], [16.377688, 67.357691], [16.377688, 67.36505], [16.371212, 67.367994], [16.354433, 67.378296], [16.351195, 67.382417], [16.345014, 67.38801]]]}}, {"type": "Feature", "properties": {"name": "unnamed"}, "geometry": {"type": "Polygon", "coordinates": [[[14.997415, 65.222079], [14.931772, 65.254165], [14.979753, 65.264467], [14.996826, 65.275653], [14.993588, 65.29567], [15.003891, 65.296553], [15.013016, 65.294493], [15.020964, 65.289783], [15.027734, 65.282129], [15.03421, 65.27006], [15.037743, 65.24239], [15.041569, 65.226789], [15.049223, 65.211188], [15.05982, 65.19853], [15.073361, 65.187638], [15.089256, 65.178513], [15.089256, 65.172332], [15.067768, 65.174098], [15.040686, 65.181751], [15.017432, 65.194114], [15.007423, 65.21001], [14.997415, 65.222079]]]}}, {"type": "Feature", "properties": {"name": "unnamed"}, "geometry": {"type": "Polygon", "coordinates": [[[15.317094, 64.974224], [15.144597, 65.021323], [15.121931, 65.023972], [15.05511, 65.041928], [14.96268, 65.049287], [14.942663, 65.046344], [14.905573, 65.035158], [14.88379, 65.035158], [14.836986, 65.044577], [14.813143, 65.05282], [14.801368, 65.062239], [14.83522, 65.067244], [14.931772, 65.055469], [15.027734, 65.070776], [15.062469, 65.069304], [15.135177, 65.035158], [15.159021, 65.035158], [15.169618, 65.045461], [15.171678, 65.061651], [15.164908, 65.078429], [15.151367, 65.090204], [15.162553, 65.091381], [15.173739, 65.090793], [15.183747, 65.088143], [15.192873, 65.082845], [15.197877, 65.07372], [15.202292, 65.047521], [15.206708, 65.035158], [15.223192, 65.021028], [15.266758, 65.013669], [15.32357, 64.98541], [15.374495, 64.980995], [15.472813, 64.986588], [15.418061, 64.958623], [15.317094, 64.974224]]]}}, {"type": "Feature", "properties": {"name": "unnamed"}, "geometry": {"type": "Polygon", "coordinates": [[[15.887277, 64.919473], [15.889044, 64.921828], [15.888161, 64.924477], [15.884334, 64.932719], [15.894342, 64.938312], [15.904939, 64.93949], [15.915536, 64.937135], [15.92525, 64.932719], [15.930255, 64.912408], [15.933787, 64.903577], [15.939086, 64.898573], [15.954393, 64.89975], [15.969994, 64.907404], [15.982357, 64.910936], [15.987361, 64.901517], [15.986184, 64.891508], [15.98118, 64.870314], [15.980002, 64.8606], [15.986773, 64.855007], [16.027984, 64.835873], [16.204308, 64.790247], [16.357377, 64.709885], [16.361498, 64.702821], [16.370035, 64.701055], [16.376216, 64.703704], [16.374744, 64.709885], [16.369446, 64.714007], [16.358849, 64.719305], [16.344131, 64.729019], [16.315577, 64.74256], [16.30969, 64.747564], [16.323819, 64.761105], [16.354433, 64.754923], [16.385047, 64.739028], [16.398882, 64.722838], [16.409774, 64.701938], [16.435678, 64.690163], [16.542238, 64.665731], [16.551363, 64.659255], [16.569908, 64.641299], [16.580211, 64.637766], [16.628192, 64.643948], [16.632607, 64.639238], [16.631724, 64.628935], [16.628192, 64.617455], [16.624954, 64.61039], [16.64085, 64.600676], [16.675879, 64.592434], [16.693246, 64.586253], [16.725332, 64.569768], [16.734163, 64.562115], [16.746232, 64.546808], [16.760656, 64.523847], [16.77037, 64.499415], [16.768898, 64.480281], [16.757712, 64.489112], [16.734163, 64.521198], [16.689714, 64.565941], [16.674996, 64.57595], [16.617301, 64.59685], [16.570497, 64.627169], [16.50868, 64.637766], [16.391523, 64.685748], [16.347369, 64.694284], [16.332062, 64.691341], [16.340304, 64.675445], [16.355022, 64.664259], [16.373861, 64.654839], [16.393878, 64.647775], [16.412717, 64.643948], [16.390051, 64.637178], [16.367974, 64.643065], [16.347369, 64.653073], [16.312928, 64.664259], [16.300565, 64.678389], [16.281725, 64.706647], [16.268479, 64.714595], [16.236982, 64.727547], [16.215788, 64.741677], [16.196949, 64.746387], [16.189589, 64.750802], [16.158681, 64.774351], [16.120414, 64.791424], [16.028867, 64.806437], [15.987361, 64.822627], [15.974704, 64.833518], [15.949683, 64.867076], [15.930549, 64.878556], [15.912593, 64.884149], [15.896403, 64.892391], [15.884334, 64.912114], [15.887277, 64.919473]]]}}, {"type": "Feature", "properties": {"name": "unnamed"}, "geometry": {"type": "Polygon", "coordinates": [[[15.761584, 58.510871], [15.611458, 58.480552], [15.600272, 58.447289], [15.574663, 58.451999], [15.514907, 58.488794], [15.526093, 58.49998], [15.555823, 58.518525], [15.559945, 58.524706], [15.560828, 58.531182], [15.564066, 58.536775], [15.62441, 58.546489], [15.953215, 58.518525], [15.953215, 58.510871], [15.857252, 58.510871], [15.784544, 58.513226], [15.761584, 58.510871]]]}}, {"type": "Feature", "properties": {"name": "unnamed"}, "geometry": {"type": "Polygon", "coordinates": [[[15.063941, 58.54855], [15.048928, 58.552082], [15.075127, 58.573865], [15.098382, 58.581519], [15.255572, 58.568567], [15.28177, 58.559441], [15.275, 58.552082], [15.261459, 58.550316], [15.239382, 58.541191], [15.226724, 58.538836], [15.191401, 58.540308], [15.130762, 58.551494], [15.106624, 58.552082], [15.063941, 58.54855]]]}}, {"type": "Feature", "properties": {"name": "unnamed"}, "geometry": {"type": "Polygon", "coordinates": [[[16.273483, 66.584985], [16.254938, 66.591167], [16.258765, 66.599703], [16.264064, 66.603824], [16.271717, 66.604707], [16.282314, 66.604707], [16.290851, 66.607945], [16.294383, 66.61501], [16.294972, 66.62178], [16.295855, 66.625313], [16.313517, 66.62443], [16.326469, 66.617659], [16.351195, 66.597937], [16.334122, 66.594699], [16.335594, 66.584102], [16.346486, 66.572033], [16.357377, 66.563791], [16.346486, 66.545835], [16.362087, 66.532294], [16.405653, 66.515221], [16.414189, 66.507273], [16.421254, 66.497853], [16.430968, 66.490494], [16.446569, 66.48755], [16.463937, 66.486079], [16.514862, 66.474304], [16.823944, 66.446339], [16.783028, 66.446634], [16.659395, 66.432799], [16.627015, 66.444868], [16.368268, 66.48755], [16.356788, 66.495498], [16.335888, 66.513749], [16.317638, 66.533471], [16.313222, 66.546423], [16.313811, 66.560258], [16.296738, 66.573799], [16.273483, 66.584985]]]}}, {"type": "Feature", "properties": {"name": "Hornavan"}, "geometry": {"type": "Polygon", "coordinates": [[[17.570746, 66.197307], [17.460359, 66.207021], [17.399426, 66.221151], [17.362631, 66.235869], [17.348207, 66.2447], [17.354388, 66.248527], [17.371167, 66.246172], [17.402664, 66.236458], [17.419148, 66.234103], [17.425036, 66.236458], [17.428274, 66.241462], [17.432395, 66.246172], [17.440343, 66.248527], [17.448585, 66.246172], [17.467424, 66.235869], [17.474489, 66.234103], [17.482142, 66.244994], [17.460654, 66.261184], [17.429451, 66.276197], [17.390301, 66.285911], [17.359098, 66.30004], [17.34438, 66.302984], [17.31406, 66.299746], [17.299048, 66.300924], [17.282269, 66.309166], [17.302875, 66.313581], [17.296399, 66.324473], [17.277854, 66.336542], [17.261664, 66.344195], [17.17983, 66.371277], [17.173649, 66.370688], [17.159519, 66.364801], [17.151866, 66.364506], [17.150688, 66.370688], [17.148628, 66.375103], [17.145684, 66.377753], [16.981135, 66.391882], [16.981135, 66.399241], [16.998502, 66.39983], [17.033531, 66.4066], [17.049427, 66.412193], [16.953464, 66.416903], [16.926383, 66.426028], [16.93698, 66.429855], [16.957291, 66.430738], [16.967594, 66.432799], [16.972892, 66.435742], [16.983195, 66.443985], [16.988494, 66.446339], [17.002623, 66.450166], [17.015281, 66.451932], [17.027644, 66.451049], [17.042068, 66.446339], [17.052665, 66.440452], [17.072682, 66.425145], [17.083573, 66.419258], [17.354388, 66.355381], [17.569568, 66.254708], [17.579283, 66.247938], [17.590468, 66.234103], [17.597533, 66.227333], [17.60813, 66.22174], [17.620199, 66.217913], [17.611957, 66.187888], [17.570746, 66.197307]]]}}, {"type": "Feature", "properties": {"name": "unnamed"}, "geometry": {"type": "Polygon", "coordinates": [[[12.497675, 60.974699], [12.472359, 61.019737], [12.487077, 61.018854], [12.519752, 61.012672], [12.530349, 61.01591], [12.542124, 61.022386], [12.560374, 61.025918], [12.594815, 61.026507], [12.588044, 61.019737], [12.573621, 61.014144], [12.56685, 61.010317], [12.560668, 61.005607], [12.568616, 61.004724], [12.588044, 60.999426], [12.565084, 60.992655], [12.557136, 60.991772], [12.548011, 60.989123], [12.548011, 60.982647], [12.553604, 60.971461], [12.554192, 60.959981], [12.558314, 60.95115], [12.556842, 60.945557], [12.540652, 60.944674], [12.515925, 60.954388], [12.497675, 60.974699]]]}}, {"type": "Feature", "properties": {"name": "unnamed"}, "geometry": {"type": "Polygon", "coordinates": [[[16.006495, 66.865514], [15.993543, 66.885825], [16.008556, 66.890535], [16.015915, 66.886414], [16.020919, 66.878466], [16.027984, 66.871696], [16.152794, 66.830779], [16.165452, 66.816944], [16.108345, 66.810174], [16.080969, 66.811057], [16.069195, 66.823126], [16.076259, 66.830779], [16.026512, 66.851679], [16.006495, 66.865514]]]}}, {"type": "Feature", "properties": {"name": "Bolmen"}, "geometry": {"type": "Polygon", "coordinates": [[[13.821136, 57.046704], [13.828495, 57.031103], [13.824079, 57.014913], [13.821724, 57.010203], [13.814365, 57.004021], [13.798175, 56.998428], [13.766384, 56.975174], [13.762557, 56.964577], [13.774037, 56.948681], [13.768445, 56.937789], [13.768739, 56.914829], [13.766384, 56.900405], [13.761085, 56.88657], [13.752843, 56.872146], [13.73577, 56.849775], [13.696325, 56.822987], [13.694559, 56.818278], [13.685139, 56.813568], [13.673071, 56.802088], [13.662473, 56.788547], [13.656586, 56.777361], [13.667772, 56.770296], [13.663357, 56.765292], [13.650993, 56.762937], [13.636864, 56.76382], [13.643634, 56.783543], [13.642162, 56.798261], [13.630976, 56.804442], [13.609488, 56.797966], [13.615375, 56.808269], [13.616847, 56.818278], [13.61302, 56.82652], [13.602718, 56.832113], [13.609782, 56.842121], [13.619496, 56.846537], [13.631271, 56.849186], [13.643634, 56.853013], [13.635686, 56.853601], [13.616847, 56.860077], [13.631565, 56.874207], [13.638336, 56.883626], [13.643634, 56.894224], [13.595653, 56.889219], [13.582406, 56.894224], [13.616847, 56.914535], [13.611548, 56.919539], [13.602718, 56.93514], [13.630682, 56.949858], [13.658352, 57.009614], [13.684845, 57.017562], [13.67778, 57.010203], [13.694853, 57.018151], [13.702801, 57.028454], [13.699858, 57.039934], [13.684845, 57.051708], [13.738419, 57.075552], [13.761085, 57.073491], [13.766384, 57.044938], [13.782574, 57.052886], [13.803179, 57.053769], [13.821136, 57.046704]]]}}, {"type": "Feature", "properties": {"name": "\u00c5snen"}, "geometry": {"type": "Polygon", "coordinates": [[[14.855237, 56.622231], [14.863185, 56.612811], [14.856414, 56.598388], [14.848761, 56.589557], [14.839341, 56.588085], [14.8258, 56.596033], [14.817558, 56.602214], [14.811965, 56.604864], [14.806372, 56.602803], [14.79813, 56.596033], [14.791654, 56.592795], [14.787827, 56.596916], [14.784295, 56.603097], [14.777525, 56.606041], [14.756625, 56.597799], [14.767811, 56.578076], [14.789594, 56.55541], [14.801368, 56.537749], [14.777525, 56.543342], [14.766045, 56.548051], [14.76104, 56.555116], [14.758097, 56.563064], [14.751621, 56.56954], [14.733664, 56.578665], [14.714236, 56.557177], [14.704522, 56.549229], [14.692159, 56.544519], [14.680385, 56.568657], [14.676558, 56.587202], [14.669787, 56.590145], [14.660957, 56.590145], [14.650948, 56.593089], [14.638291, 56.602803], [14.629754, 56.613106], [14.625044, 56.626058], [14.623867, 56.64372], [14.615624, 56.673745], [14.599729, 56.703181], [14.589132, 56.732912], [14.595902, 56.76382], [14.601495, 56.760877], [14.605322, 56.757639], [14.607677, 56.754106], [14.610032, 56.749985], [14.627105, 56.710246], [14.637407, 56.674922], [14.640645, 56.67139], [14.655069, 56.646369], [14.654481, 56.640187], [14.668021, 56.641953], [14.676852, 56.647252], [14.678618, 56.655789], [14.671554, 56.667563], [14.687155, 56.674628], [14.695397, 56.675805], [14.7057, 56.674922], [14.701284, 56.700826], [14.70099, 56.715545], [14.7057, 56.729674], [14.731604, 56.712601], [14.765161, 56.67345], [14.788416, 56.661382], [14.805195, 56.66197], [14.816675, 56.660498], [14.829333, 56.654022], [14.83993, 56.643131], [14.855237, 56.622231]]]}}, {"type": "Feature", "properties": {"name": "Foxen"}, "geometry": {"type": "Polygon", "coordinates": [[[12.184766, 59.042199], [12.18035, 59.028069], [12.197423, 58.991274], [12.180939, 58.998044], [12.167692, 59.008935], [12.15739, 59.022771], [12.149147, 59.038666], [12.163277, 59.043376], [12.170342, 59.055151], [12.172108, 59.070752], [12.170047, 59.086942], [12.166809, 59.101071], [12.162099, 59.111374], [12.15474, 59.119322], [12.043176, 59.185848], [12.012562, 59.193796], [11.989602, 59.212341], [11.959871, 59.219995], [11.889813, 59.249725], [11.872445, 59.277396], [11.848602, 59.333913], [11.836827, 59.32626], [11.827996, 59.316252], [11.813867, 59.292997], [11.823875, 59.268859], [11.827702, 59.249137], [11.827407, 59.200272], [11.831823, 59.187026], [11.841831, 59.184082], [11.854195, 59.184082], [11.86538, 59.179372], [11.868618, 59.173485], [11.867735, 59.161122], [11.869207, 59.155234], [11.885397, 59.134923], [11.895994, 59.115201], [11.896583, 59.109902], [11.882748, 59.086942], [11.876272, 59.071341], [11.874506, 59.061627], [11.875978, 59.035428], [11.884514, 59.015117], [11.901587, 58.9951], [11.912479, 58.975672], [11.903353, 58.956539], [11.927491, 58.926219], [11.931024, 58.919154], [11.926314, 58.905614], [11.915422, 58.911795], [11.903942, 58.92563], [11.873623, 58.980088], [11.856844, 58.992745], [11.827407, 58.998338], [11.838593, 59.012468], [11.840065, 59.026009], [11.831823, 59.037489], [11.813867, 59.046025], [11.83094, 59.058683], [11.831234, 59.075756], [11.820931, 59.091652], [11.807096, 59.101366], [11.840948, 59.102543], [11.849485, 59.116967], [11.841243, 59.137867], [11.824464, 59.158178], [11.815339, 59.164065], [11.80533, 59.168775], [11.796794, 59.175251], [11.793556, 59.186437], [11.795322, 59.217345], [11.793556, 59.230297], [11.77972, 59.265032], [11.77766, 59.275924], [11.776777, 59.285343], [11.775011, 59.294174], [11.769418, 59.303005], [11.718198, 59.350103], [11.704069, 59.36806], [11.759115, 59.332147], [11.790023, 59.317135], [11.813867, 59.319784], [11.826524, 59.342744], [11.822109, 59.368354], [11.808568, 59.391903], [11.793556, 59.408388], [11.809157, 59.416335], [11.817105, 59.422517], [11.820048, 59.431937], [11.821226, 59.450187], [11.819165, 59.456663], [11.815044, 59.461962], [11.814161, 59.468143], [11.821226, 59.477269], [11.833295, 59.483745], [11.84713, 59.485805], [11.856255, 59.481979], [11.855372, 59.470498], [11.841831, 59.456958], [11.848896, 59.443123], [11.851251, 59.427227], [11.85655, 59.41398], [11.887163, 59.403383], [11.900704, 59.393964], [11.911007, 59.390431], [11.916894, 59.402206], [11.908946, 59.431054], [11.910713, 59.442534], [11.943976, 59.422223], [11.963404, 59.415747], [12.005203, 59.408388], [12.005203, 59.402206], [11.953395, 59.408388], [11.9375, 59.402206], [11.943093, 59.384838], [11.930141, 59.372769], [11.912184, 59.362761], [11.903353, 59.350692], [11.899821, 59.343333], [11.885986, 59.328909], [11.88628, 59.323022], [11.894817, 59.316546], [11.900115, 59.314191], [11.90247, 59.309187], [11.904531, 59.283283], [11.908063, 59.278573], [11.914539, 59.276512], [11.931024, 59.267093], [11.944564, 59.262089], [11.95104, 59.258262], [11.956633, 59.251786], [11.964287, 59.237068], [11.971352, 59.230297], [11.980182, 59.225882], [12.048475, 59.204688], [12.063782, 59.197034], [12.126776, 59.153174], [12.154152, 59.144343], [12.171813, 59.134629], [12.187709, 59.123149], [12.197423, 59.114318], [12.204782, 59.095773], [12.203899, 59.061627], [12.211258, 59.046025], [12.184766, 59.042199]]]}}, {"type": "Feature", "properties": {"name": "unnamed"}, "geometry": {"type": "Polygon", "coordinates": [[[19.882682, 67.752727], [19.82116, 67.76097], [19.770529, 67.774216], [19.721959, 67.792761], [19.610395, 67.809245], [19.497065, 67.819548], [19.375198, 67.83044], [19.252154, 67.82308], [19.197696, 67.82308], [19.14265, 67.822492], [19.089665, 67.823375], [19.039034, 67.838976], [19.298075, 67.846335], [19.556526, 67.824847], [19.677216, 67.815721], [19.796727, 67.806007], [19.86031, 67.7907], [19.923598, 67.77245], [19.975112, 67.755082], [19.944498, 67.744485], [19.882682, 67.752727]]]}}, {"type": "Feature", "properties": {"name": "Randijaure"}, "geometry": {"type": "Polygon", "coordinates": [[[19.439075, 66.671528], [19.427889, 66.657399], [19.440841, 66.645624], [19.440841, 66.638265], [19.252743, 66.688896], [19.243029, 66.696843], [19.245972, 66.711267], [19.249505, 66.718038], [19.245383, 66.723042], [19.225367, 66.731284], [19.202701, 66.73305], [19.162962, 66.719509], [19.139412, 66.724219], [19.107032, 66.743353], [19.089665, 66.751301], [19.07112, 66.754244], [19.0617, 66.758954], [19.023139, 66.789862], [18.999589, 66.800754], [18.885082, 66.829307], [18.872424, 66.830779], [18.84446, 66.830779], [18.844754, 66.828718], [18.843282, 66.824303], [18.840633, 66.819593], [18.837689, 66.816944], [18.813257, 66.814883], [18.749086, 66.816944], [18.727891, 66.823126], [18.740843, 66.827835], [18.769691, 66.833134], [18.782937, 66.837549], [18.766453, 66.844614], [18.726125, 66.847852], [18.707875, 66.85109], [18.669313, 66.869635], [18.54568, 66.887297], [18.45325, 66.879055], [18.41616, 66.879643], [18.387606, 66.884648], [18.368473, 66.885825], [18.353166, 66.882587], [18.324612, 66.867575], [18.310189, 66.864337], [18.021123, 66.858744], [17.819484, 66.8767], [17.780039, 66.887003], [17.748836, 66.905842], [17.730586, 66.930863], [17.740594, 66.937633], [17.764143, 66.931157], [17.814185, 66.900249], [17.852158, 66.894656], [18.139752, 66.881998], [18.225706, 66.869341], [18.268978, 66.871696], [18.360525, 66.896422], [18.474444, 66.89966], [18.543914, 66.912612], [18.579237, 66.909374], [18.954257, 66.830779], [18.950725, 66.834017], [18.941305, 66.844908], [18.965443, 66.851385], [18.996057, 66.851385], [19.025788, 66.845792], [19.069942, 66.823126], [19.12911, 66.81871], [19.153542, 66.809585], [19.106738, 66.810468], [19.082306, 66.806936], [19.071709, 66.796633], [19.07583, 66.785447], [19.08731, 66.783092], [19.100851, 66.783681], [19.112037, 66.782209], [19.125872, 66.763958], [19.132936, 66.758071], [19.173264, 66.744825], [19.22625, 66.739232], [19.277175, 66.745708], [19.310438, 66.768668], [19.316914, 66.759249], [19.324567, 66.754833], [19.33281, 66.751301], [19.341641, 66.745119], [19.345173, 66.738054], [19.346056, 66.722747], [19.351649, 66.713916], [19.365778, 66.70538], [19.381674, 66.703908], [19.413465, 66.707146], [19.42995, 66.705674], [19.474987, 66.693605], [19.439075, 66.671528]]]}}, {"type": "Feature", "properties": {"name": "Storuman"}, "geometry": {"type": "Polygon", "coordinates": [[[17.212799, 65.07107], [17.241647, 65.062239], [17.2284, 65.058413], [17.21486, 65.056352], [17.131849, 65.055469], [17.112127, 65.061651], [17.07592, 65.079312], [17.056197, 65.082845], [17.046778, 65.094325], [17.031176, 65.102862], [17.012632, 65.10816], [16.995264, 65.110221], [16.984961, 65.114931], [16.977602, 65.126705], [16.967594, 65.151726], [16.950815, 65.164678], [16.929032, 65.174392], [16.899301, 65.195881], [16.885172, 65.200885], [16.85809, 65.206478], [16.841017, 65.207361], [16.829243, 65.2053], [16.827771, 65.200296], [16.843961, 65.192643], [16.843961, 65.185872], [16.816585, 65.188227], [16.790387, 65.194114], [16.741522, 65.213837], [16.754474, 65.220019], [16.745938, 65.224728], [16.736224, 65.227378], [16.725332, 65.227966], [16.714735, 65.226789], [16.717384, 65.222668], [16.720328, 65.220019], [16.704727, 65.21001], [16.688242, 65.216192], [16.652036, 65.241213], [16.570791, 65.262996], [16.549008, 65.275359], [16.538411, 65.267706], [16.526342, 65.263879], [16.51339, 65.264173], [16.500732, 65.267706], [16.50868, 65.281835], [16.512801, 65.295964], [16.508975, 65.308033], [16.494551, 65.316276], [16.494551, 65.322457], [16.515451, 65.326578], [16.512801, 65.336587], [16.496023, 65.346595], [16.473651, 65.351011], [16.449807, 65.352777], [16.354139, 65.37662], [16.340598, 65.38604], [16.327058, 65.390455], [16.30498, 65.405174], [16.270245, 65.416654], [16.254938, 65.426073], [16.274072, 65.427545], [16.306746, 65.421952], [16.34001, 65.412533], [16.385342, 65.386923], [16.417722, 65.378092], [16.487192, 65.370733], [16.484542, 65.378092], [16.480716, 65.385157], [16.507797, 65.381919], [16.539294, 65.362196], [16.554895, 65.338059], [16.534879, 65.322457], [16.548419, 65.311566], [16.594046, 65.301263], [16.60376, 65.291843], [16.613474, 65.277714], [16.637023, 65.273004], [16.686182, 65.275359], [16.673524, 65.291255], [16.631724, 65.313626], [16.617301, 65.329816], [16.632607, 65.329816], [16.651152, 65.326873], [16.686182, 65.316276], [16.698545, 65.308328], [16.724449, 65.286545], [16.734457, 65.282129], [16.756535, 65.281246], [16.803044, 65.272415], [16.823355, 65.264467], [16.83042, 65.259758], [16.838662, 65.250632], [16.843961, 65.247394], [16.85603, 65.243862], [16.892237, 65.241213], [16.951404, 65.222668], [17.010277, 65.194998], [17.063262, 65.15938], [17.103884, 65.116991], [17.087106, 65.112281], [17.052959, 65.116108], [17.035886, 65.110221], [17.097408, 65.090204], [17.114187, 65.079312], [17.139797, 65.070187], [17.212799, 65.07107]]]}}, {"type": "Feature", "properties": {"name": "unnamed"}, "geometry": {"type": "Polygon", "coordinates": [[[15.473402, 64.243024], [15.452207, 64.246851], [15.469869, 64.25421], [15.489297, 64.254799], [15.509608, 64.250677], [15.546404, 64.23802], [15.641483, 64.232721], [15.66621, 64.221535], [15.703006, 64.188567], [15.715663, 64.183562], [15.729204, 64.187978], [15.742745, 64.195043], [15.754519, 64.198869], [15.768943, 64.197103], [15.778068, 64.191805], [15.79573, 64.178558], [15.825461, 64.168844], [15.895814, 64.155009], [15.921718, 64.140585], [15.921129, 64.127045], [15.891987, 64.086128], [15.884334, 64.06876], [15.8861, 64.058458], [15.895225, 64.045506], [15.897875, 64.035203], [15.895225, 64.024311], [15.88139, 64.004589], [15.878152, 63.99723], [15.867261, 63.978391], [15.842534, 63.979274], [15.81663, 63.991637], [15.802501, 64.007238], [15.800734, 64.031082], [15.808388, 64.049038], [15.818102, 64.065817], [15.823106, 64.086128], [15.817219, 64.111443], [15.802206, 64.130283], [15.780423, 64.143235], [15.754519, 64.151182], [15.692114, 64.163251], [15.672097, 64.171788], [15.659734, 64.18003], [15.630592, 64.205934], [15.608809, 64.215942], [15.513435, 64.231249], [15.473402, 64.243024]]]}}, {"type": "Feature", "properties": {"name": "unnamed"}, "geometry": {"type": "Polygon", "coordinates": [[[15.446026, 62.431213], [15.391568, 62.431213], [15.410996, 62.420616], [15.41865, 62.417672], [15.399516, 62.410313], [15.378322, 62.410607], [15.336817, 62.417672], [15.314445, 62.417672], [15.250862, 62.410607], [15.236733, 62.407664], [15.204353, 62.393534], [15.102797, 62.382937], [15.109567, 62.371162], [15.124874, 62.353795], [15.130762, 62.341726], [15.130762, 62.336133], [15.124874, 62.324653], [15.123403, 62.317883], [15.125463, 62.311701], [15.129879, 62.306991], [15.134883, 62.303459], [15.137826, 62.300809], [15.159021, 62.266663], [15.162259, 62.253417], [15.162553, 62.241348], [15.164319, 62.229868], [15.172267, 62.218388], [15.146657, 62.223392], [15.109862, 62.263131], [15.086313, 62.273139], [15.062764, 62.279615], [15.038331, 62.295217], [15.000653, 62.328185], [14.984168, 62.339371], [14.976809, 62.346436], [14.973277, 62.355561], [14.975337, 62.36763], [14.984463, 62.366158], [14.99712, 62.359682], [15.010661, 62.355561], [15.034799, 62.324947], [15.040098, 62.319943], [15.075421, 62.300809], [15.073655, 62.316116], [15.080425, 62.330246], [15.084841, 62.344964], [15.075421, 62.362332], [15.060114, 62.372634], [14.96003, 62.408841], [14.94384, 62.419144], [14.939131, 62.437394], [14.947962, 62.461238], [14.961502, 62.459472], [14.986818, 62.431213], [15.024202, 62.406486], [15.071889, 62.396183], [15.123697, 62.396478], [15.192578, 62.408547], [15.236733, 62.421793], [15.254395, 62.431213], [15.269702, 62.446814], [15.25881, 62.452407], [15.237027, 62.457706], [15.220248, 62.472129], [15.251157, 62.470658], [15.34241, 62.437394], [15.34241, 62.444754], [15.322687, 62.454468], [15.316505, 62.459177], [15.313267, 62.463298], [15.30738, 62.47419], [15.30267, 62.478311], [15.284714, 62.484787], [15.244975, 62.49038], [15.227019, 62.499505], [15.234967, 62.502743], [15.243209, 62.504804], [15.25204, 62.505687], [15.261165, 62.505687], [15.287069, 62.497739], [15.330929, 62.477722], [15.350063, 62.46477], [15.371846, 62.453584], [15.421593, 62.442693], [15.446026, 62.431213]]]}}, {"type": "Feature", "properties": {"name": "unnamed"}, "geometry": {"type": "Polygon", "coordinates": [[[15.137826, 62.814769], [15.148718, 62.845089], [15.121048, 62.859218], [15.053344, 62.863339], [15.062469, 62.868344], [15.073949, 62.869815], [15.083075, 62.87688], [15.075421, 62.88365], [15.08072, 62.890126], [15.089256, 62.911026], [15.072772, 62.915147], [15.056288, 62.93016], [15.027734, 62.965778], [15.039803, 62.965778], [15.050695, 62.963423], [15.060114, 62.958713], [15.068651, 62.951354], [15.079542, 62.961657], [15.089551, 62.964895], [15.096321, 62.959891], [15.096615, 62.945173], [15.12458, 62.924567], [15.241148, 62.911615], [15.247624, 62.88365], [15.417767, 62.761195], [15.431896, 62.739118], [15.415117, 62.731464], [15.400988, 62.736468], [15.37685, 62.759723], [15.359483, 62.770909], [15.343881, 62.775324], [15.30267, 62.780034], [15.227019, 62.807999], [15.204058, 62.810354], [15.157254, 62.808882], [15.137826, 62.814769]]]}}, {"type": "Feature", "properties": {"name": "unnamed"}, "geometry": {"type": "Polygon", "coordinates": [[[14.599729, 62.773853], [14.586482, 62.781506], [14.568821, 62.79799], [14.560873, 62.814769], [14.575591, 62.822128], [14.59443, 62.814181], [14.610915, 62.798579], [14.628576, 62.787688], [14.650948, 62.794458], [14.640057, 62.803583], [14.627399, 62.810354], [14.619746, 62.817713], [14.623867, 62.829193], [14.616508, 62.830959], [14.613858, 62.832137], [14.610032, 62.835375], [14.622984, 62.841262], [14.62475, 62.846855], [14.620923, 62.853625], [14.610032, 62.887183], [14.606794, 62.893364], [14.58766, 62.9072], [14.521134, 62.931632], [14.526432, 62.938402], [14.530553, 62.945761], [14.533497, 62.953709], [14.536146, 62.970782], [14.540856, 62.974315], [14.547626, 62.975786], [14.574119, 62.988444], [14.599729, 62.995803], [14.621806, 62.994626], [14.630637, 62.979319], [14.631226, 62.971665], [14.630637, 62.965778], [14.63152, 62.961657], [14.637407, 62.958713], [14.625633, 62.950471], [14.609737, 62.945761], [14.595608, 62.939874], [14.58972, 62.928099], [14.597374, 62.916619], [14.636524, 62.910732], [14.650948, 62.904256], [14.658013, 62.88365], [14.652714, 62.838613], [14.668316, 62.805938], [14.6639, 62.79593], [14.655658, 62.786216], [14.650948, 62.773853], [14.654186, 62.766199], [14.668316, 62.748537], [14.681268, 62.722045], [14.718358, 62.691725], [14.719829, 62.670825], [14.676558, 62.707915], [14.623867, 62.736174], [14.620334, 62.739118], [14.614741, 62.744711], [14.605322, 62.768554], [14.599729, 62.773853]]]}}, {"type": "Feature", "properties": {"name": "unnamed"}, "geometry": {"type": "Polygon", "coordinates": [[[16.898124, 60.595852], [16.893414, 60.583489], [16.89518, 60.573186], [16.906072, 60.567299], [16.886644, 60.552875], [16.863683, 60.554053], [16.816585, 60.567299], [16.789798, 60.563767], [16.757712, 60.53904], [16.734457, 60.533153], [16.718856, 60.535802], [16.698251, 60.542573], [16.680294, 60.552287], [16.672641, 60.563472], [16.664693, 60.578485], [16.645854, 60.578485], [16.60376, 60.567299], [16.60376, 60.574069], [16.621716, 60.583784], [16.632313, 60.594381], [16.643793, 60.60174], [16.665282, 60.601445], [16.715029, 60.589082], [16.741817, 60.585255], [16.768898, 60.587905], [16.783028, 60.592614], [16.784794, 60.596441], [16.783616, 60.601151], [16.789209, 60.608216], [16.803339, 60.61999], [16.813053, 60.625583], [16.823944, 60.628821], [16.844255, 60.628232], [16.871631, 60.6247], [16.896063, 60.61793], [16.906072, 60.608216], [16.898124, 60.595852]]]}}, {"type": "Feature", "properties": {"name": "unnamed"}, "geometry": {"type": "Polygon", "coordinates": [[[14.204692, 63.983984], [14.226475, 64.007238], [14.212051, 64.009593], [14.172018, 64.027549], [14.102842, 64.041973], [14.101959, 64.044034], [14.101665, 64.047861], [14.100782, 64.051982], [14.096661, 64.054925], [14.088418, 64.056103], [14.070462, 64.054042], [14.061926, 64.054925], [14.04809, 64.062284], [14.026602, 64.079063], [14.01365, 64.082301], [14.000992, 64.084067], [13.966257, 64.094076], [13.95566, 64.099963], [13.943886, 64.108205], [13.933381271484567, 64.11089217893293], [13.934208367843212, 64.11079679922008], [13.952180025864035, 64.12703425366183], [14.134339, 64.075236], [14.18703, 64.046977], [14.273573, 64.014009], [14.268569, 64.011359], [14.258561, 64.003706], [14.253262, 64.001057], [14.419578, 63.930409], [14.530848, 63.850048], [14.555574, 63.835918], [14.593842, 63.823849], [14.674497, 63.818257], [14.713059, 63.809131], [14.681268, 63.797651], [14.636524, 63.794707], [14.555574, 63.801772], [14.54586, 63.815607], [14.526727, 63.828559], [14.462555, 63.861234], [14.390436, 63.883605], [14.395734, 63.885077], [14.406037, 63.889493], [14.411336, 63.890964], [14.400444, 63.903622], [14.38396, 63.912453], [14.349519, 63.924522], [14.287408, 63.960434], [14.266803, 63.965439], [14.248847, 63.961612], [14.231479, 63.954547], [14.213817, 63.952192], [14.195567, 63.962495], [14.174667, 63.969265], [14.114322, 63.962201], [14.088713, 63.965439], [14.12227, 63.972503], [14.165247, 63.975447], [14.204692, 63.983984]]]}}, {"type": "Feature", "properties": {"name": "unnamed"}, "geometry": {"type": "Polygon", "coordinates": [[[13.728705, 64.756101], [13.736948, 64.748447], [13.739891, 64.723721], [13.741952, 64.718422], [13.745484, 64.714007], [13.749605, 64.709885], [13.7499, 64.703409], [13.734887, 64.702526], [13.705156, 64.706647], [13.658781139883256, 64.72249552886079], [13.709916089342482, 64.76182573842424], [13.728705, 64.756101]]]}}, {"type": "Feature", "properties": {"name": "unnamed"}, "geometry": {"type": "MultiPolygon", "coordinates": [[[[19.886214, 68.413575], [19.948031, 68.372364], [19.906525, 68.365005], [19.77936, 68.405333], [19.762876, 68.418873], [19.747569, 68.434769], [19.729024, 68.447427], [19.665441, 68.465677], [19.530917, 68.4854], [19.391094, 68.527199], [19.349188637208748, 68.55010123961202], [19.498891667194847, 68.52256383313808], [19.50098288750202, 68.52222010545503], [19.588612, 68.497763], [19.663352678054803, 68.49553186428167], [19.731158680707427, 68.48438679261757], [19.704592, 68.478041], [19.694583, 68.468621], [19.713422, 68.457435], [19.817627, 68.447427], [19.813212, 68.423878], [19.831168, 68.414164], [19.886214, 68.413575]]], [[[19.194458, 68.564289], [19.186805, 68.566056], [19.184156, 68.570471], [19.183273, 68.575181], [19.180918, 68.578419], [19.1725800986447, 68.58258783065604], [19.28546351438111, 68.5618232776367], [19.194458, 68.564289]]]]}}, {"type": "Feature", "properties": {"name": "unnamed"}, "geometry": {"type": "Polygon", "coordinates": [[[14.20116, 58.976555], [14.151412, 58.977144], [14.109613, 58.970668], [14.099899, 58.972434], [14.116677, 58.983914], [14.137283, 58.990685], [14.230302, 58.992745], [14.247669, 58.998633], [14.25444, 59.010113], [14.242959, 59.028952], [14.225298, 59.037783], [14.182909, 59.038961], [14.164364, 59.046025], [14.193506, 59.055739], [14.224415, 59.052796], [14.280638, 59.032485], [14.273573, 59.046025], [14.291824, 59.05309], [14.342749, 59.08076], [14.343043, 59.06457], [14.342749, 59.059566], [14.348047, 59.032779], [14.349814, 59.008347], [14.356584, 58.987447], [14.37719, 58.970962], [14.363354, 58.961543], [14.342749, 58.937699], [14.328325, 58.928574], [14.264742, 58.910029], [14.242959, 58.908263], [14.238544, 58.911207], [14.24031, 58.917977], [14.246492, 58.928574], [14.246786, 58.933578], [14.249141, 58.937111], [14.252085, 58.940349], [14.253262, 58.942998], [14.250319, 58.947708], [14.241488, 58.955067], [14.239427, 58.960071], [14.227947, 58.971257], [14.20116, 58.976555]]]}}, {"type": "Feature", "properties": {"name": "unnamed"}, "geometry": {"type": "Polygon", "coordinates": [[[14.472858, 58.549139], [14.476979, 58.530888], [14.474624, 58.522057], [14.462555, 58.518525], [14.448426, 58.516464], [14.428703, 58.5094], [14.417517, 58.510871], [14.4393, 58.535892], [14.445482, 58.546489], [14.436062, 58.54855], [14.430764, 58.552082], [14.421344, 58.562385], [14.409864, 58.568861], [14.390436, 58.568567], [14.37719, 58.572982], [14.328325, 58.624496], [14.314196, 58.644218], [14.284465, 58.642158], [14.255912, 58.621847], [14.246492, 58.586817], [14.204103, 58.587406], [14.18703, 58.593293], [14.179377, 58.613899], [14.19174, 58.612427], [14.202337, 58.614193], [14.209991, 58.620375], [14.216172, 58.643924], [14.224709, 58.646868], [14.2356, 58.646279], [14.246492, 58.648045], [14.27063, 58.672477], [14.279166, 58.677187], [14.29153, 58.680131], [14.315079, 58.68278], [14.333329, 58.675421], [14.348342, 58.661586], [14.358939, 58.64569], [14.368359, 58.613016], [14.381899, 58.598592], [14.399561, 58.5877], [14.417517, 58.579753], [14.454607, 58.571216], [14.467854, 58.564151], [14.472858, 58.549139]]]}}, {"type": "Feature", "properties": {"name": "unnamed"}, "geometry": {"type": "Polygon", "coordinates": [[[16.030927, 58.6295], [16.0898, 58.607128], [16.0898, 58.600358], [15.964107, 58.589761], [15.903468, 58.593293], [15.854014, 58.617431], [15.844889, 58.637448], [15.867261, 58.644513], [15.899641, 58.646573], [15.921718, 58.651872], [15.931138, 58.670711], [15.921129, 58.68278], [15.903762, 58.69426], [15.891693, 58.710156], [15.905528, 58.704269], [15.931432, 58.688079], [15.945856, 58.68278], [15.964401, 58.673655], [15.989422, 58.666296], [16.011794, 58.655993], [16.021508, 58.637742], [16.030927, 58.6295]]]}}, {"type": "Feature", "properties": {"name": "unnamed"}, "geometry": {"type": "Polygon", "coordinates": [[[15.939086, 58.031058], [16.000902, 58.011335], [16.000902, 58.003976], [15.988833, 58.003388], [15.959397, 58.011335], [15.866672, 58.011924], [15.843123, 58.008392], [15.823106, 57.997795], [15.847244, 57.980133], [15.86049, 57.972774], [15.89287, 57.966886], [15.909649, 57.958939], [15.923779, 57.948047], [15.932021, 57.935684], [15.872559, 57.93745], [15.857547, 57.935684], [15.851954, 57.922143], [15.845183, 57.917728], [15.833114, 57.925087], [15.828993, 57.933035], [15.830465, 57.940099], [15.836353, 57.945692], [15.844006, 57.949225], [15.778363, 57.985726], [15.758052, 58.000738], [15.762173, 58.013396], [15.788666, 58.026348], [15.821046, 58.036062], [15.844006, 58.038711], [15.836647, 58.031058], [15.862845, 58.018695], [15.886983, 58.021638], [15.911415, 58.029292], [15.939086, 58.031058]]]}}, {"type": "Feature", "properties": {"name": "unnamed"}, "geometry": {"type": "Polygon", "coordinates": [[[15.369491, 57.956289], [15.370374, 57.949225], [15.359188, 57.958055], [15.35389, 57.968653], [15.350063, 57.979544], [15.34241, 57.990141], [15.332401, 57.995734], [15.30738, 58.002504], [15.295311, 58.011335], [15.288541, 57.993674], [15.296783, 57.982488], [15.310913, 57.973951], [15.322687, 57.963648], [15.32151, 57.954817], [15.329752, 57.943926], [15.343293, 57.934212], [15.356833, 57.928913], [15.346531, 57.918905], [15.345059, 57.908897], [15.34918, 57.8983], [15.356833, 57.887702], [15.33505, 57.888291], [15.321215, 57.896828], [15.260871, 57.9766], [15.24733, 57.986903], [15.244975, 57.992496], [15.239382, 57.9975], [15.227019, 57.997795], [15.22172, 57.994557], [15.215539, 57.988081], [15.206708, 57.9766], [15.196699, 57.959233], [15.194639, 57.945103], [15.198465, 57.931268], [15.206708, 57.915078], [15.187574, 57.91655], [15.167263, 57.925675], [15.151073, 57.938922], [15.144597, 57.953051], [15.132528, 57.967181], [15.106624, 57.980133], [15.068651, 57.993968], [15.050989, 58.022227], [15.018903, 58.047248], [15.004774, 58.065498], [15.041569, 58.072269], [15.025085, 58.089636], [15.016843, 58.109359], [15.019198, 58.129081], [15.034799, 58.14792], [15.033916, 58.138206], [15.035388, 58.130847], [15.038331, 58.125254], [15.045985, 58.114363], [15.059231, 58.09935], [15.062469, 58.093169], [15.06188, 58.085221], [15.056288, 58.070503], [15.05511, 58.066087], [15.054521, 58.059317], [15.052461, 58.05549], [15.051578, 58.051958], [15.05511, 58.045482], [15.063941, 58.040183], [15.077187, 58.037534], [15.090728, 58.037828], [15.108684, 58.045776], [15.117515, 58.041655], [15.126052, 58.03459], [15.134294, 58.031058], [15.142536, 58.033413], [15.1549, 58.043127], [15.161964, 58.045482], [15.179332, 58.048425], [15.185219, 58.056079], [15.181981, 58.06697], [15.172267, 58.079628], [15.187868, 58.07845], [15.201703, 58.073741], [15.21495, 58.06697], [15.227019, 58.058434], [15.212595, 58.052252], [15.21966, 58.041361], [15.227019, 58.032824], [15.236733, 58.026937], [15.250862, 58.024876], [15.259104, 58.026054], [15.273234, 58.030763], [15.28177, 58.031058], [15.289424, 58.028409], [15.301493, 58.019578], [15.308852, 58.017517], [15.325631, 58.020755], [15.335345, 58.025465], [15.344764, 58.025465], [15.360071, 58.014573], [15.36537, 58.003976], [15.366842, 57.988081], [15.365959, 57.973068], [15.363604, 57.963648], [15.368608, 57.958939], [15.369491, 57.956289]]]}}, {"type": "Feature", "properties": {"name": "unnamed"}, "geometry": {"type": "Polygon", "coordinates": [[[16.426847, 60.157839], [16.433912, 60.156367], [16.433029, 60.149596], [16.417722, 60.144298], [16.381515, 60.144298], [16.368268, 60.138705], [16.35826, 60.131346], [16.345897, 60.126342], [16.331767, 60.123104], [16.317049, 60.121632], [16.321759, 60.138705], [16.329412, 60.149302], [16.34207, 60.154306], [16.402415, 60.155778], [16.426847, 60.157839]]]}}, {"type": "Feature", "properties": {"name": "M\u00e4laren"}, "geometry": {"type": "Polygon", "coordinates": [[[18.019651, 59.327143], [17.988743, 59.337151], [17.969609, 59.333913], [17.911914, 59.30536], [17.899551, 59.296235], [17.89749, 59.290348], [17.887776, 59.280928], [17.885421, 59.275041], [17.886599, 59.269153], [17.891897, 59.260028], [17.89278, 59.255318], [17.891308, 59.240894], [17.886599, 59.22912], [17.878062, 59.22441], [17.86511, 59.230592], [17.867465, 59.258262], [17.828903, 59.270036], [17.741477, 59.271508], [17.741477, 59.265327], [17.782982, 59.258262], [17.772091, 59.247076], [17.752369, 59.240306], [17.730586, 59.239128], [17.713513, 59.244721], [17.732941, 59.251786], [17.741477, 59.25208], [17.729703, 59.256201], [17.70527, 59.261205], [17.693496, 59.265327], [17.696145, 59.269153], [17.700561, 59.278867], [17.636978, 59.291819], [17.605481, 59.291819], [17.576928, 59.278867], [17.592823, 59.272097], [17.599888, 59.260617], [17.603715, 59.230592], [17.597533, 59.22441], [17.589585, 59.233535], [17.575456, 59.259734], [17.56633, 59.265327], [17.551907, 59.267976], [17.510696, 59.2824], [17.47184, 59.30536], [17.429746, 59.316546], [17.350856, 59.326554], [17.364985, 59.282988], [17.377643, 59.26621], [17.399426, 59.258262], [17.399426, 59.25208], [17.213977, 59.258262], [17.213977, 59.265327], [17.249889, 59.267681], [17.2702, 59.271803], [17.282269, 59.278867], [17.278442, 59.286521], [17.241647, 59.319784], [17.306113, 59.329498], [17.316121, 59.337151], [17.306701, 59.353636], [17.28433, 59.360112], [17.234288, 59.361584], [17.143918, 59.375713], [17.09888, 59.377185], [17.04354, 59.361584], [17.039419, 59.366588], [17.03883, 59.375124], [17.035886, 59.381306], [16.971715, 59.407799], [16.967594, 59.412214], [16.961412, 59.424578], [16.955819, 59.43282], [16.9464, 59.439001], [16.933153, 59.451953], [16.926383, 59.456958], [16.915786, 59.461667], [16.884878, 59.470498], [16.840723, 59.49081], [16.821295, 59.493459], [16.823944, 59.477563], [16.748293, 59.477563], [16.739756, 59.479329], [16.724449, 59.484922], [16.714735, 59.484922], [16.706199, 59.482273], [16.697368, 59.477269], [16.694424, 59.472853], [16.726215, 59.465789], [16.83984, 59.412509], [16.85132, 59.408682], [16.878402, 59.410154], [16.884878, 59.408682], [16.889882, 59.403089], [16.892825, 59.396613], [16.891942, 59.39102], [16.885466, 59.38896], [16.817174, 59.38896], [16.808343, 59.392198], [16.782439, 59.416041], [16.71032, 59.450482], [16.689714, 59.466966], [16.665871, 59.478446], [16.640555, 59.471087], [16.61524, 59.457546], [16.590219, 59.450187], [16.574323, 59.452542], [16.546064, 59.462256], [16.528697, 59.463434], [16.523693, 59.461079], [16.512801, 59.452248], [16.508091, 59.450187], [16.499261, 59.45107], [16.483954, 59.45578], [16.477183, 59.456958], [16.165452, 59.444006], [16.125418, 59.446655], [16.080969, 59.455191], [16.042407, 59.47197], [16.021508, 59.497874], [16.123946, 59.477563], [16.233744, 59.477563], [16.233744, 59.484922], [16.213139, 59.484922], [16.213139, 59.491104], [16.248462, 59.503467], [16.267302, 59.502878], [16.275249, 59.48816], [16.282314, 59.470498], [16.298504, 59.460784], [16.318815, 59.458724], [16.336772, 59.463434], [16.325586, 59.47668], [16.330296, 59.481095], [16.342659, 59.483156], [16.354139, 59.48816], [16.372978, 59.50435], [16.383575, 59.509649], [16.39535, 59.511709], [16.442743, 59.499935], [16.468647, 59.498463], [16.494551, 59.511709], [16.445981, 59.525839], [16.469824, 59.52996], [16.503676, 59.530843], [16.53429, 59.535847], [16.549008, 59.552626], [16.535762, 59.566167], [16.510152, 59.584712], [16.498083, 59.600902], [16.524576, 59.607966], [16.538411, 59.609733], [16.549302, 59.612971], [16.560194, 59.612676], [16.586392, 59.596486], [16.617006, 59.587361], [16.631724, 59.580591], [16.644971, 59.567933], [16.658512, 59.551743], [16.674702, 59.537908], [16.696484, 59.53202], [16.726804, 59.529077], [16.741817, 59.52996], [16.748293, 59.535847], [16.753297, 59.542912], [16.764483, 59.55086], [16.77714, 59.557336], [16.785971, 59.559985], [16.789798, 59.565578], [16.793036, 59.577353], [16.797746, 59.589421], [16.806282, 59.59472], [16.871337, 59.587361], [16.87899, 59.588244], [16.883994, 59.589421], [16.889882, 59.589716], [16.898713, 59.587361], [16.908132, 59.58324], [16.90931, 59.581179], [16.908721, 59.57853], [16.912842, 59.573231], [16.94375, 59.549388], [16.953759, 59.547327], [17.069738, 59.546444], [17.058258, 59.561457], [17.021462, 59.580296], [17.007922, 59.59472], [17.027644, 59.597369], [17.037947, 59.600313], [17.055609, 59.609733], [17.060907, 59.604728], [17.06444, 59.595309], [17.069738, 59.587361], [17.083868, 59.574998], [17.09211, 59.569405], [17.100646, 59.566755], [17.103001, 59.563812], [17.129494, 59.551154], [17.154221, 59.544678], [17.209267, 59.545267], [17.220747, 59.535847], [17.229872, 59.526428], [17.34438, 59.477563], [17.364102, 59.477857], [17.36057, 59.487572], [17.353211, 59.499346], [17.361159, 59.504939], [17.373228, 59.498169], [17.405902, 59.473736], [17.412378, 59.474031], [17.412084, 59.49081], [17.409434, 59.501112], [17.392067, 59.525839], [17.407079, 59.541735], [17.395599, 59.561163], [17.375288, 59.581179], [17.364691, 59.597958], [17.345557, 59.613854], [17.336726, 59.623862], [17.340848, 59.628278], [17.354094, 59.631516], [17.364397, 59.638875], [17.374111, 59.648], [17.385885, 59.655653], [17.377937, 59.637697], [17.373816, 59.620035], [17.379998, 59.606495], [17.402664, 59.600902], [17.405019, 59.597958], [17.435338, 59.57382], [17.486558, 59.547916], [17.495094, 59.546444], [17.50628, 59.548505], [17.524531, 59.557925], [17.533067, 59.559985], [17.54808, 59.553803], [17.544842, 59.540263], [17.531596, 59.525839], [17.515405, 59.51848], [17.519527, 59.511709], [17.52512, 59.504939], [17.532184, 59.499935], [17.544253, 59.496991], [17.551024, 59.492281], [17.556616, 59.491104], [17.562504, 59.493164], [17.564564, 59.50229], [17.569568, 59.504939], [17.590174, 59.505233], [17.65199, 59.497874], [17.668475, 59.49287], [17.679955, 59.480507], [17.697028, 59.453425], [17.714984, 59.4443], [17.73088, 59.448127], [17.737356, 59.46049], [17.727642, 59.477563], [17.740005, 59.485805], [17.780039, 59.526428], [17.789164, 59.539674], [17.765321, 59.576764], [17.753546, 59.587067], [17.740005, 59.59472], [17.725287, 59.59943], [17.710569, 59.600902], [17.610779, 59.632693], [17.574867, 59.651238], [17.563976, 59.660952], [17.563387, 59.676553], [17.617844, 59.697159], [17.61284, 59.701869], [17.608719, 59.707462], [17.603715, 59.710405], [17.61755, 59.730422], [17.596944, 59.73837], [17.536011, 59.73837], [17.550435, 59.732777], [17.556616, 59.731305], [17.54337, 59.721002], [17.527474, 59.716292], [17.514228, 59.709522], [17.508635, 59.693626], [17.515405, 59.669783], [17.514228, 59.658303], [17.501865, 59.649472], [17.515994, 59.63652], [17.529241, 59.612971], [17.537188, 59.588833], [17.536011, 59.573231], [17.518643, 59.590599], [17.490385, 59.632987], [17.474489, 59.642113], [17.480671, 59.660363], [17.470073, 59.666839], [17.455061, 59.670372], [17.447407, 59.679791], [17.451528, 59.691271], [17.462126, 59.702457], [17.484792, 59.720708], [17.495094, 59.734249], [17.488913, 59.738958], [17.41385, 59.739842], [17.390595, 59.743668], [17.371461, 59.75191], [17.518938, 59.75191], [17.54808, 59.75662], [17.567802, 59.769572], [17.582815, 59.789], [17.597533, 59.813433], [17.602537, 59.803719], [17.610779, 59.796948], [17.631679, 59.786645], [17.625203, 59.764274], [17.644337, 59.751322], [17.67083, 59.742196], [17.686725, 59.731305], [17.664354, 59.730422], [17.657289, 59.721591], [17.656406, 59.707462], [17.652579, 59.6898], [17.642571, 59.67361], [17.629913, 59.665367], [17.613429, 59.662718], [17.590763, 59.662424], [17.606364, 59.65271], [17.626969, 59.644173], [17.648164, 59.637992], [17.66612, 59.635931], [17.705565, 59.62504], [17.719989, 59.625334], [17.713513, 59.642113], [17.717928, 59.658891], [17.711158, 59.677731], [17.709391, 59.693921], [17.727642, 59.70334], [17.73088, 59.687739], [17.736473, 59.678025], [17.742949, 59.6689], [17.748836, 59.655653], [17.752663, 59.629455], [17.758845, 59.618858], [17.775623, 59.607966], [17.784454, 59.605317], [17.805354, 59.60149], [17.813302, 59.597958], [17.819484, 59.590599], [17.819484, 59.585006], [17.817129, 59.579707], [17.817129, 59.573231], [17.81654, 59.570877], [17.815068, 59.568227], [17.815363, 59.564106], [17.820367, 59.556453], [17.827431, 59.549094], [17.838912, 59.540263], [17.843916, 59.53202], [17.818895, 59.525839], [17.793285, 59.50906], [17.777684, 59.486688], [17.782982, 59.463434], [17.760022, 59.421045], [17.790342, 59.387488], [17.84421, 59.363055], [17.89278, 59.347749], [17.922805, 59.343333], [17.995513, 59.35393], [18.095008, 59.338623], [18.095008, 59.326849], [18.019651, 59.327143]]]}}, {"type": "Feature", "properties": {"name": "Akkajaure"}, "geometry": {"type": "Polygon", "coordinates": [[[18.294293, 67.473082], [18.260735, 67.479263], [18.205101, 67.481618], [18.18685, 67.484562], [18.172132, 67.491921], [18.16595, 67.505462], [18.162123, 67.521357], [18.152409, 67.529305], [17.803294, 67.597892], [17.7612, 67.597009], [17.740005, 67.599952], [17.706742, 67.617909], [17.639038, 67.618497], [17.549552, 67.653821], [17.515405, 67.659414], [17.478316, 67.654115], [17.40914, 67.636159], [17.371461, 67.639397], [17.261369, 67.664124], [17.17983, 67.694149], [17.17983, 67.700331], [17.220158, 67.697093], [17.337315, 67.673544], [17.367635, 67.671483], [17.372639, 67.675604], [17.364691, 67.687084], [17.347324, 67.696798], [17.323774, 67.70769], [17.269906, 67.725646], [17.239881, 67.73065], [17.195432, 67.762147], [17.17983, 67.769212], [17.148628, 67.775688], [17.138619, 67.779515], [17.117425, 67.783636], [17.094759, 67.782458], [17.073859, 67.78393], [17.056197, 67.796588], [17.13391, 67.800709], [17.175415, 67.798648], [17.20338, 67.786285], [17.226634, 67.769212], [17.255776, 67.758026], [17.588113, 67.682669], [17.614606, 67.670011], [17.698206, 67.656765], [17.730586, 67.643813], [17.851275, 67.625268], [17.888954, 67.607312], [17.917213, 67.602896], [17.984033, 67.584057], [18.025539, 67.58494], [18.155942, 67.561685], [18.203334, 67.533132], [18.384663, 67.45748], [18.424696, 67.448061], [18.414688, 67.427161], [18.294293, 67.473082]]]}}, {"type": "Feature", "properties": {"name": "Stora Lulevatten"}, "geometry": {"type": "Polygon", "coordinates": [[[18.481214, 67.421273], [18.509179, 67.413031], [18.528901, 67.412443], [18.584242, 67.42039], [18.606025, 67.416564], [18.628985, 67.409793], [18.651945, 67.405378], [18.673728, 67.409499], [18.727303, 67.411854], [18.810313, 67.396547], [18.886848, 67.370348], [18.920111, 67.340912], [18.936301, 67.32119], [18.973685, 67.308532], [19.043744, 67.296169], [19.112037, 67.275563], [19.149126, 67.251425], [19.15678, 67.247599], [19.175325, 67.244361], [19.230371, 67.226699], [19.253626, 67.212275], [19.274231, 67.20521], [19.283356, 67.2005], [19.288361, 67.194907], [19.299546, 67.178717], [19.304256, 67.173419], [19.332515, 67.161644], [19.369899, 67.155463], [19.499714, 67.148398], [19.659554, 67.118667], [19.756988, 67.083932], [19.771118, 67.074513], [19.787013, 67.060972], [19.799671, 67.045959], [19.804675, 67.033007], [19.807325, 67.02712], [19.812623, 67.023882], [19.815567, 67.019172], [19.810857, 67.008869], [19.80232, 67.001805], [19.792901, 67.002982], [19.784364, 67.010341], [19.777299, 67.02241], [19.749629, 67.028886], [19.696644, 67.051258], [19.667502, 67.055968], [19.601858, 67.058028], [19.572128, 67.065976], [19.550933, 67.083932], [19.561531, 67.094824], [19.547695, 67.10336], [19.432893, 67.121905], [19.406695, 67.11484], [19.368133, 67.110719], [19.309555, 67.116901], [19.259807, 67.133091], [19.248916, 67.159584], [19.23302, 67.162527], [19.126755, 67.203444], [19.114391, 67.210214], [19.094963, 67.224638], [19.091725, 67.23288], [19.095258, 67.240828], [19.097907, 67.250248], [19.091431, 67.262022], [19.062583, 67.27939], [19.025788, 67.287632], [18.954552, 67.289987], [18.925998, 67.29558], [18.8998, 67.309121], [18.851819, 67.343856], [18.755267, 67.388893], [18.73996, 67.392131], [18.718472, 67.391543], [18.697572, 67.388305], [18.684031, 67.382417], [18.667841, 67.378296], [18.647824, 67.383889], [18.612206, 67.398607], [18.576294, 67.39743], [18.530962, 67.390954], [18.487985, 67.388893], [18.457665, 67.402434], [18.436765, 67.418624], [18.414688, 67.427161], [18.424696, 67.448061], [18.481214, 67.421273]]]}}]}